id,ident,type,name,latitude_deg,longitude_deg,elevation_ft,continent,iso_country,iso_region,municipality,scheduled_service,icao_code,iata_code,local_code
12243,5A8,medium_airport,Aleknagik / New Airport,59.2826004028,-158.617996216,66,NA,US,US-AK,Aleknagik,yes,5A8,WKK,5A8
19042,K79J,medium_airport,South Alabama Regional At Bill Benton Field Airport,31.3088,-86.393799,310,NA,US,US-AL,Andalusia/Opp,no,K79J,,79J
3356,KABE,medium_airport,Lehigh Valley International Airport,40.652099609375,-75.440803527832,393,NA,US,US-PA,Allentown,yes,KABE,ABE,ABE
3357,KABI,medium_airport,Abilene Regional Airport,32.4113006592,-99.6819000244,1791,NA,US,US-TX,Abilene,yes,KABI,ABI,ABI
16091,KABQ,large_airport,Albuquerque International Sunport,35.040199,-106.609001,5355,NA,US,US-NM,Albuquerque,yes,KABQ,ABQ,ABQ
3358,KABR,medium_airport,Aberdeen Regional Airport,45.4491004943848,-98.4217987060547,1302,NA,US,US-SD,Aberdeen,yes,KABR,ABR,ABR
3359,KABY,medium_airport,Southwest Georgia Regional Airport,31.5354995727539,-84.1945037841797,197,NA,US,US-GA,Albany,yes,KABY,ABY,ABY
3360,KACK,medium_airport,Nantucket Memorial Airport,41.25310135,-70.06020355,47,NA,US,US-MA,Nantucket,yes,KACK,ACK,ACK
3361,KACT,medium_airport,Waco Regional Airport,31.6112995147705,-97.2304992675781,516,NA,US,US-TX,Waco,yes,KACT,ACT,ACT
3362,KACV,medium_airport,California Redwood Coast-Humboldt County Airport,40.978101,-124.109,221,NA,US,US-CA,Arcata/Eureka,yes,KACV,ACV,ACV
3363,KACY,medium_airport,Atlantic City International Airport,39.4575996398926,-74.5772018432617,75,NA,US,US-NJ,Atlantic City,yes,KACY,ACY,ACY
3364,KADW,large_airport,Joint Base Andrews,38.810799,-76.866997,280,NA,US,US-MD,Camp Springs,no,KADW,ADW,ADW
3365,KAEX,medium_airport,Alexandria International Airport,31.3274002075195,-92.5497970581055,89,NA,US,US-LA,Alexandria,yes,KAEX,AEX,AEX
3366,KAFW,large_airport,Fort Worth Alliance Airport,32.9875984192,-97.3188018799,722,NA,US,US-TX,Fort Worth,no,KAFW,AFW,AFW
3367,KAGC,medium_airport,Allegheny County Airport,40.3544006347656,-79.9301986694336,1252,NA,US,US-PA,Pittsburgh,no,KAGC,AGC,AGC
3368,KAGS,large_airport,Augusta Regional At Bush Field,33.3698997497559,-81.9645004272461,144,NA,US,US-GA,Augusta,yes,KAGS,AGS,AGS
3369,KAHN,medium_airport,Athens Ben Epps Airport,33.948600769043,-83.326301574707,808,NA,US,US-GA,Athens,yes,KAHN,AHN,AHN
3370,KAKR,medium_airport,Akron Fulton International Airport,41.0374984741,-81.4669036865,1067,NA,US,US-OH,Akron,no,KAKR,AKC,AKR
3371,KALB,medium_airport,Albany International Airport,42.7482986450195,-73.8016967773438,285,NA,US,US-NY,Albany,yes,KALB,ALB,ALB
3372,KALI,medium_airport,Alice International Airport,27.7409000397,-98.0269012451,178,NA,US,US-TX,Alice,no,KALI,ALI,ALI
3373,KALM,medium_airport,Alamogordo White Sands Regional Airport,32.8399009705,-105.990997314,4200,NA,US,US-NM,Alamogordo,no,KALM,ALM,ALM
3374,KALN,medium_airport,St Louis Regional Airport,38.8903007507,-90.0459976196,544,NA,US,US-IL,Alton/St Louis,no,KALN,ALN,ALN
3375,KALO,medium_airport,Waterloo Regional Airport,42.5570983886719,-92.4002990722656,873,NA,US,US-IA,Waterloo,yes,KALO,ALO,ALO
19275,KALS,medium_airport,San Luis Valley Regional Bergman Field,37.434898,-105.866997,7539,NA,US,US-CO,Alamosa,yes,KALS,ALS,ALS
3376,KALW,medium_airport,Walla Walla Regional Airport,46.09489822,-118.288002,1194,NA,US,US-WA,Walla Walla,yes,KALW,ALW,ALW
3377,KAMA,large_airport,Rick Husband Amarillo International Airport,35.219398,-101.706001,3607,NA,US,US-TX,Amarillo,yes,KAMA,AMA,AMA
3378,KANB,medium_airport,Anniston Regional Airport,33.5882,-85.8581,612,NA,US,US-AL,Anniston,no,KANB,ANB,ANB
3379,KAND,medium_airport,Anderson Regional Airport,34.4945983887,-82.7093963623,782,NA,US,US-SC,Anderson,no,KAND,AND,AND
3380,KAOO,medium_airport,Altoona Blair County Airport,40.29639816,-78.31999969,1503,NA,US,US-PA,Altoona,yes,KAOO,AOO,AOO
19291,KAPA,medium_airport,Centennial Airport,39.57009888,-104.848999,5885,NA,US,US-CO,Denver,no,KAPA,APA,APA
19293,KAPF,medium_airport,Naples Municipal Airport,26.1525993347,-81.7752990723,8,NA,US,US-FL,Naples,no,KAPF,APF,APF
3381,KAPG,medium_airport,Phillips Army Air Field,39.466202,-76.1688,57,NA,US,US-MD,Aberdeen Proving Grounds(Aberdeen),no,KAPG,APG,APG
3382,KAPN,medium_airport,Alpena County Regional Airport,45.0780983,-83.56030273,690,NA,US,US-MI,Alpena,yes,KAPN,APN,APN
19301,KARA,medium_airport,Acadiana Regional Airport,30.0378,-91.883904,24,NA,US,US-LA,New Iberia,no,KARA,ARA,ARA
3383,KART,medium_airport,Watertown International Airport,43.9919013977051,-76.0216979980469,325,NA,US,US-NY,Watertown,yes,KART,ART,ART
19308,KASE,medium_airport,Aspen-Pitkin Co/Sardy Field,39.22320175,-106.8690033,7820,NA,US,US-CO,Aspen,yes,KASE,ASE,ASE
19314,KAST,medium_airport,Astoria Regional Airport,46.158000946,-123.878997803,15,NA,US,US-OR,Astoria,no,KAST,AST,AST
3384,KATL,large_airport,Hartsfield Jackson Atlanta International Airport,33.6367,-84.428101,1026,NA,US,US-GA,Atlanta,yes,KATL,ATL,ATL
3385,KATY,medium_airport,Watertown Regional Airport,44.91400146,-97.15470123,1749,NA,US,US-SD,Watertown,yes,KATY,ATY,ATY
19321,KAUG,medium_airport,Augusta State Airport,44.3205986023,-69.7973022461,352,NA,US,US-ME,Augusta,yes,KAUG,AUG,AUG
3386,KAUS,large_airport,Austin Bergstrom International Airport,30.1944999694824,-97.6698989868164,542,NA,US,US-TX,Austin,yes,KAUS,AUS,AUS
19326,KAUW,medium_airport,Wausau Downtown Airport,44.9262008667,-89.6266021729,1201,NA,US,US-WI,Wausau,no,KAUW,AUW,AUW
3387,KAVL,large_airport,Asheville Regional Airport,35.4361991882324,-82.5418014526367,2165,NA,US,US-NC,Asheville,yes,KAVL,AVL,AVL
3388,KAVP,medium_airport,Wilkes Barre Scranton International Airport,41.3385009766,-75.7233963013,962,NA,US,US-PA,Wilkes-Barre/Scranton,yes,KAVP,AVP,AVP
3389,KAXN,medium_airport,Chandler Field,45.8662986755,-95.3946990967,1425,NA,US,US-MN,Alexandria,no,KAXN,AXN,AXN
3390,KAZO,medium_airport,Kalamazoo Battle Creek International Airport,42.2349014282227,-85.5521011352539,874,NA,US,US-MI,Kalamazoo,yes,KAZO,AZO,AZO
3391,KBAB,large_airport,Beale Air Force Base,39.136100769,-121.43699646,113,NA,US,US-CA,Marysville,no,KBAB,BAB,BAB
3392,KBAD,large_airport,Barksdale Air Force Base,32.5018005371,-93.6626968384,166,NA,US,US-LA,Bossier City,no,KBAD,BAD,BAD
3393,KBAF,medium_airport,Westfield-Barnes Regional Airport,42.157799,-72.715599,271,NA,US,US-MA,Westfield/Springfield,no,KBAF,BAF,BAF
3394,KBAK,medium_airport,Columbus Municipal Airport,39.2619018555,-85.8963012695,656,NA,US,US-IN,Columbus,no,KBAK,CLU,BAK
19353,KBBD,medium_airport,Curtis Field,31.1793003082,-99.3238983154,1827,NA,US,US-TX,Brady,no,KBBD,BBD,BBD
19357,KBCE,medium_airport,Bryce Canyon Airport,37.706401825,-112.144996643,7590,NA,US,US-UT,Bryce Canyon,no,KBCE,BCE,BCE
3395,KBDE,medium_airport,Baudette International Airport,48.7284011841,-94.612197876,1086,NA,US,US-MN,Baudette,no,KBDE,BDE,BDE
3396,KBDL,large_airport,Bradley International Airport,41.9388999939,-72.6831970215,173,NA,US,US-CT,Hartford,yes,KBDL,BDL,BDL
3397,KBDR,medium_airport,Igor I Sikorsky Memorial Airport,41.163501739502,-73.1261978149414,9,NA,US,US-CT,Bridgeport,yes,KBDR,BDR,BDR
3398,KBED,medium_airport,Laurence G Hanscom Field,42.47000122,-71.28900146,133,NA,US,US-MA,Bedford,no,KBED,BED,BED
3399,KBFD,medium_airport,Bradford Regional Airport,41.8031005859375,-78.6400985717773,2143,NA,US,US-PA,Bradford,yes,KBFD,BFD,BFD
3400,KBFF,medium_airport,Western Neb. Rgnl/William B. Heilig Airport,41.87400055,-103.5960007,3967,NA,US,US-NE,Scottsbluff,yes,KBFF,BFF,BFF
3401,KBFI,large_airport,Boeing Field King County International Airport,47.5299987792969,-122.302001953125,21,NA,US,US-WA,Seattle,yes,KBFI,BFI,BFI
3402,KBFL,medium_airport,Meadows Field,35.43360138,-119.0569992,510,NA,US,US-CA,Bakersfield,no,KBFL,BFL,BFL
3403,KBFM,medium_airport,Mobile Downtown Airport,30.6268005371,-88.0680999756,26,NA,US,US-AL,Mobile,no,KBFM,BFM,BFM
3404,KBGM,medium_airport,Greater Binghamton/Edwin A Link field,42.20869827,-75.97979736,1636,NA,US,US-NY,Binghamton,yes,KBGM,BGM,BGM
3405,KBGR,large_airport,Bangor International Airport,44.8073997497559,-68.8281021118164,192,NA,US,US-ME,Bangor,yes,KBGR,BGR,BGR
19373,KBHB,medium_airport,Hancock County-Bar Harbor Airport,44.45000076,-68.3615036,83,NA,US,US-ME,Bar Harbor,yes,KBHB,BHB,BHB
3406,KBHM,large_airport,Birmingham-Shuttlesworth International Airport,33.56290054,-86.75350189,650,NA,US,US-AL,Birmingham,yes,KBHM,BHM,BHM
3407,KBIF,medium_airport,Biggs Army Air Field (Fort Bliss),31.84950066,-106.3799973,3946,NA,US,US-TX,Fort Bliss/El Paso,no,KBIF,BIF,BIF
19377,KBIH,medium_airport,Eastern Sierra Regional Airport,37.3731002808,-118.363998413,4124,NA,US,US-CA,Bishop,no,KBIH,BIH,BIH
3408,KBIL,large_airport,Billings Logan International Airport,45.8077011108398,-108.542999267578,3652,NA,US,US-MT,Billings,yes,KBIL,BIL,BIL
3409,KBIS,medium_airport,Bismarck Municipal Airport,46.7727012634277,-100.746002197266,1661,NA,US,US-ND,Bismarck,yes,KBIS,BIS,BIS
3410,KBIX,medium_airport,Keesler Air Force Base,30.4104003906,-88.9244003296,33,NA,US,US-MS,Biloxi,no,KBIX,BIX,BIX
3411,KBJC,medium_airport,Rocky Mountain Metropolitan Airport,39.90879822,-105.1169968,5673,NA,US,US-CO,Denver,no,KBJC,BJC,BJC
19380,KBJI,medium_airport,Bemidji Regional Airport,47.50939941,-94.93370056,1391,NA,US,US-MN,Bemidji,no,KBJI,BJI,BJI
3412,KBKE,medium_airport,Baker City Municipal Airport,44.8372993469,-117.808998108,3373,NA,US,US-OR,Baker City,no,KBKE,BKE,BKE
3413,KBKF,medium_airport,Buckley Air Force Base,39.7016983032,-104.751998901,5662,NA,US,US-CO,Aurora,no,KBKF,BFK,BKF
3414,KBKL,medium_airport,Burke Lakefront Airport,41.5175018310547,-81.6832962036133,583,NA,US,US-OH,Cleveland,no,KBKL,BKL,BKL
3415,KBKW,medium_airport,Raleigh County Memorial Airport,37.7873001099,-81.1241989136,2504,NA,US,US-WV,Beckley,yes,KBKW,BKW,BKW
19387,KBLF,medium_airport,Mercer County Airport,37.2957992553711,-81.2077026367188,2857,NA,US,US-WV,Bluefield,yes,KBLF,BLF,BLF
19388,KBLH,medium_airport,Blythe Airport,33.6192016602,-114.717002869,399,NA,US,US-CA,Blythe,no,KBLH,BLH,BLH
3416,KBLI,medium_airport,Bellingham International Airport,48.7928009033203,-122.53800201416,170,NA,US,US-WA,Bellingham,yes,KBLI,BLI,BLI
3417,KBLV,large_airport,Scott AFB/Midamerica Airport,38.5452,-89.835197,459,NA,US,US-IL,Belleville,yes,KBLV,BLV,BLV
3418,KBMG,medium_airport,Monroe County Airport,39.1459999084473,-86.61669921875,846,NA,US,US-IN,Bloomington,no,KBMG,BMG,BMG
3419,KBMI,large_airport,Central Illinois Regional Airport at Bloomington-Normal,40.47710037,-88.91590118,871,NA,US,US-IL,Bloomington/Normal,yes,KBMI,BMI,BMI
3420,KBNA,large_airport,Nashville International Airport,36.1245002746582,-86.6781997680664,599,NA,US,US-TN,Nashville,yes,KBNA,BNA,BNA
19397,KBNO,medium_airport,Burns Municipal Airport,43.5918998718,-118.955001831,4148,NA,US,US-OR,Burns,no,KBNO,BNO,BNO
3421,KBOI,large_airport,Boise Air Terminal/Gowen Field,43.5644,-116.223,2871,NA,US,US-ID,Boise,yes,KBOI,BOI,BOI
3422,KBOS,large_airport,General Edward Lawrence Logan International Airport,42.36429977,-71.00520325,20,NA,US,US-MA,Boston,yes,KBOS,BOS,BOS
19401,KBPI,medium_airport,Miley Memorial Field,42.58509827,-110.1110001,6990,NA,US,US-WY,Big Piney,no,KBPI,BPI,BPI
19402,KBPK,medium_airport,Ozark Regional Airport,36.3689002991,-92.4704971313,928,NA,US,US-AR,Mountain Home,no,KBPK,WMH,BPK
3423,KBPT,medium_airport,Southeast Texas Regional Airport,29.9507999420166,-94.0206985473633,15,NA,US,US-TX,Beaumont/Port Arthur,yes,KBPT,BPT,BPT
3424,KBQK,medium_airport,Brunswick Golden Isles Airport,31.2588005065918,-81.4664993286133,26,NA,US,US-GA,Brunswick,yes,KBQK,BQK,BQK
19406,KBRD,medium_airport,Brainerd Lakes Regional Airport,46.39830017,-94.13809967,1232,NA,US,US-MN,Brainerd,yes,KBRD,BRD,BRD
3425,KBRL,medium_airport,Southeast Iowa Regional Airport,40.7831993103027,-91.1255035400391,698,NA,US,US-IA,Burlington,yes,KBRL,BRL,BRL
3426,KBRO,medium_airport,Brownsville South Padre Island International Airport,25.9067993164062,-97.4259033203125,22,NA,US,US-TX,Brownsville,yes,KBRO,BRO,BRO
3427,KBTL,medium_airport,W K Kellogg Airport,42.3073005676,-85.2515029907,952,NA,US,US-MI,Battle Creek,no,KBTL,BTL,BTL
3428,KBTM,medium_airport,Bert Mooney Airport,45.9547996520996,-112.497001647949,5550,NA,US,US-MT,Butte,yes,KBTM,BTM,BTM
3429,KBTR,medium_airport,Baton Rouge Metropolitan Airport,30.533199,-91.149597,70,NA,US,US-LA,Baton Rouge,yes,KBTR,BTR,BTR
3430,KBTV,medium_airport,Burlington International Airport,44.4719009399,-73.1532974243,335,NA,US,US-VT,Burlington,yes,KBTV,BTV,BTV
3431,KBUF,large_airport,Buffalo Niagara International Airport,42.94049835,-78.73220062,728,NA,US,US-NY,Buffalo,yes,KBUF,BUF,BUF
3432,KBUR,medium_airport,Bob Hope Airport,34.2006988525391,-118.359001159668,778,NA,US,US-CA,Burbank,yes,KBUR,BUR,BUR
19417,KBVI,medium_airport,Beaver County Airport,40.7724990845,-80.3914031982,1253,NA,US,US-PA,Beaver Falls,no,KBVI,BFP,BVI
3433,KBVY,medium_airport,Beverly Municipal Airport,42.5842018127,-70.9164962769,107,NA,US,US-MA,Beverly,no,KBVY,BVY,BVY
3434,KBWG,medium_airport,Bowling Green Warren County Regional Airport,36.9645004272,-86.4197006226,547,NA,US,US-KY,Bowling Green,no,KBWG,BWG,BWG
3435,KBWI,large_airport,Baltimore/Washington International Thurgood Marshall Airport,39.1754,-76.668297,146,NA,US,US-MD,Baltimore,yes,KBWI,BWI,BWI
3436,KBYH,medium_airport,Arkansas International Airport,35.9642982483,-89.9440002441,254,NA,US,US-AR,Blytheville,no,KBYH,BYH,BYH
19429,KBYI,medium_airport,Burley Municipal Airport,42.5425987244,-113.772003174,4150,NA,US,US-ID,Burley,no,KBYI,BYI,BYI
19430,KBYS,medium_airport,Bicycle Lake Army Air Field,35.2804985046,-116.629997253,2350,NA,US,US-CA,Fort Irwin/Barstow,no,KBYS,BYS,BYS
3437,KBZN,medium_airport,Gallatin Field,45.77750015,-111.1529999,4473,NA,US,US-MT,Bozeman,yes,KBZN,BZN,BZN
3438,KCAE,large_airport,Columbia Metropolitan Airport,33.9388008117676,-81.119499206543,236,NA,US,US-SC,Columbia,yes,KCAE,CAE,CAE
3439,KCAK,medium_airport,Akron Canton Regional Airport,40.9160995483398,-81.4421997070312,1228,NA,US,US-OH,Akron,yes,KCAK,CAK,CAK
3440,KCAR,medium_airport,Caribou Municipal Airport,46.8714981079,-68.0178985596,626,NA,US,US-ME,Caribou,no,KCAR,CAR,CAR
3441,KCBM,large_airport,Columbus Air Force Base,33.6437988281,-88.4438018799,219,NA,US,US-MS,Columbus,no,KCBM,CBM,CBM
19470,KCCY,medium_airport,Northeast Iowa Regional Airport,43.0726013184,-92.6108016968,1125,NA,US,US-IA,Charles City,no,KCCY,CCY,CCY
3442,KCDC,medium_airport,Cedar City Regional Airport,37.701000213623,-113.098999023438,5622,NA,US,US-UT,Cedar City,yes,KCDC,CDC,CDC
19474,KCDR,medium_airport,Chadron Municipal Airport,42.837600708,-103.095001221,3297,NA,US,US-NE,Chadron,no,KCDR,CDR,CDR
19475,KCDS,medium_airport,Childress Municipal Airport,34.4337997437,-100.288002014,1954,NA,US,US-TX,Childress,no,KCDS,CDS,CDS
3443,KCEC,medium_airport,Jack Mc Namara Field Airport,41.78020096,-124.2369995,61,NA,US,US-CA,Crescent City,yes,KCEC,CEC,CEC
3444,KCEF,medium_airport,Westover ARB/Metropolitan Airport,42.19400024,-72.53479767,241,NA,US,US-MA,Springfield/Chicopee,no,KCEF,CEF,CEF
3445,KCEW,medium_airport,Bob Sikes Airport,30.778799057,-86.522102356,213,NA,US,US-FL,Crestview,no,KCEW,CEW,CEW
3446,KCGF,medium_airport,Cuyahoga County Airport,41.5651016235,-81.4863967896,879,NA,US,US-OH,Cleveland,no,KCGF,CGF,CGF
3447,KCGI,medium_airport,Cape Girardeau Regional Airport,37.2252998352051,-89.57080078125,342,NA,US,US-MO,Cape Girardeau,yes,KCGI,CGI,CGI
3448,KCHA,large_airport,Lovell Field,35.0353012084961,-85.2037963867187,683,NA,US,US-TN,Chattanooga,yes,KCHA,CHA,CHA
3449,KCHO,medium_airport,Charlottesville Albemarle Airport,38.138599395752,-78.4529037475586,639,NA,US,US-VA,Charlottesville,yes,KCHO,CHO,CHO
3450,KCHS,large_airport,Charleston Air Force Base-International Airport,32.89860153,-80.04049683,46,NA,US,US-SC,Charleston,yes,KCHS,CHS,CHS
3451,KCID,large_airport,The Eastern Iowa Airport,41.8847007751465,-91.7108001708984,869,NA,US,US-IA,Cedar Rapids,yes,KCID,CID,CID
3452,KCIU,medium_airport,Chippewa County International Airport,46.2508010864258,-84.4723968505859,800,NA,US,US-MI,Sault Ste Marie,yes,KCIU,CIU,CIU
3453,KCKB,medium_airport,North Central West Virginia Airport,39.2966003418,-80.2281036377,1217,NA,US,US-WV,Clarksburg,yes,KCKB,CKB,CKB
3454,KCLE,large_airport,Cleveland Hopkins International Airport,41.4117012024,-81.8498001099,791,NA,US,US-OH,Cleveland,yes,KCLE,CLE,CLE
3455,KCLL,medium_airport,Easterwood Field,30.58860016,-96.36380005,320,NA,US,US-TX,College Station,yes,KCLL,CLL,CLL
3456,KCLM,medium_airport,William R Fairchild International Airport,48.1202011108398,-123.5,291,NA,US,US-WA,Port Angeles,yes,KCLM,CLM,CLM
3457,KCLT,large_airport,Charlotte Douglas International Airport,35.2140007019043,-80.9430999755859,748,NA,US,US-NC,Charlotte,yes,KCLT,CLT,CLT
3458,KCMH,large_airport,John Glenn Columbus International Airport,39.998001,-82.891899,815,NA,US,US-OH,Columbus,yes,KCMH,CMH,CMH
3459,KCMI,medium_airport,University of Illinois Willard Airport,40.03919983,-88.27809906,755,NA,US,US-IL,Champaign/Urbana,yes,KCMI,CMI,CMI
3460,KCMX,medium_airport,Houghton County Memorial Airport,47.168399810791,-88.4890975952149,1095,NA,US,US-MI,Hancock,yes,KCMX,CMX,CMX
3461,KCNM,medium_airport,Cavern City Air Terminal,32.3375015258789,-104.263000488281,3295,NA,US,US-NM,Carlsbad,yes,KCNM,CNM,CNM
19527,KCNU,medium_airport,Chanute Martin Johnson Airport,37.668800354,-95.4850997925,1002,NA,US,US-KS,Chanute,no,KCNU,CNU,CNU
19530,KCOD,medium_airport,Yellowstone Regional Airport,44.520198822,-109.024002075,5102,NA,US,US-WY,Cody,no,KCOD,COD,COD
19531,KCOE,medium_airport,Coeur D'Alene - Pappy Boyington Field,47.77429962,-116.8199997,2320,NA,US,US-ID,Coeur d'Alene,no,KCOE,COE,COE
3462,KCOF,medium_airport,Patrick Air Force Base,28.2348995209,-80.6100997925,8,NA,US,US-FL,Cocoa Beach,no,KCOF,COF,COF
19534,KCON,medium_airport,Concord Municipal Airport,43.20270157,-71.50229645,342,NA,US,US-NH,Concord,no,KCON,CON,CON
3463,KCOS,large_airport,City of Colorado Springs Municipal Airport,38.805801,-104.700996,6187,NA,US,US-CO,Colorado Springs,yes,KCOS,COS,COS
3464,KCOU,medium_airport,Columbia Regional Airport,38.8180999755859,-92.219596862793,889,NA,US,US-MO,Columbia,yes,KCOU,COU,COU
3465,KCPR,medium_airport,Casper-Natrona County International Airport,42.908001,-106.463997,5350,NA,US,US-WY,Casper,yes,KCPR,CPR,CPR
19549,KCRE,medium_airport,Grand Strand Airport,33.8116989136,-78.7238998413,32,NA,US,US-SC,North Myrtle Beach,no,KCRE,CRE,CRE
19550,KCRG,medium_airport,Jacksonville Executive at Craig Airport,30.3362998962,-81.5143966675,41,NA,US,US-FL,Jacksonville,no,KCRG,CRG,CRG
3466,KCRP,large_airport,Corpus Christi International Airport,27.7703990936279,-97.5011978149414,44,NA,US,US-TX,Corpus Christi,yes,KCRP,CRP,CRP
19552,KCRQ,medium_airport,Mc Clellan-Palomar Airport,33.12829971,-117.2799988,331,NA,US,US-CA,Carlsbad,no,KCRQ,CLD,CRQ
3467,KCRW,large_airport,Yeager Airport,38.3731002807617,-81.5932006835937,981,NA,US,US-WV,Charleston,yes,KCRW,CRW,CRW
3468,KCSG,medium_airport,Columbus Metropolitan Airport,32.516300201416,-84.9389038085937,397,NA,US,US-GA,Columbus,yes,KCSG,CSG,CSG
3469,KCSV,medium_airport,Crossville Memorial Whitson Field,35.9513015747,-85.0849990845,1881,NA,US,US-TN,Crossville,no,KCSV,CSV,CSV
3470,KCTB,medium_airport,Cut Bank International Airport,48.6083984375,-112.375999451,3854,NA,US,US-MT,Cut Bank,no,KCTB,CTB,CTB
19564,KCUB,medium_airport,Jim Hamilton L.B. Owens Airport,33.970500946,-80.9952011108,193,NA,US,US-SC,Columbia,no,KCUB,CUB,CUB
3471,KCVG,large_airport,Cincinnati Northern Kentucky International Airport,39.0488014221,-84.6678009033,896,NA,US,US-KY,Cincinnati,yes,KCVG,CVG,CVG
3472,KCVO,medium_airport,Corvallis Municipal Airport,44.49720001,-123.2900009,250,NA,US,US-OR,Corvallis,no,KCVO,CVO,CVO
3473,KCVS,large_airport,Cannon Air Force Base,34.3828010559,-103.321998596,4295,NA,US,US-NM,Clovis,no,KCVS,CVS,CVS
19571,KCWA,medium_airport,Central Wisconsin Airport,44.7775993347,-89.6668014526,1277,NA,US,US-WI,Mosinee,no,KCWA,CWA,CWA
3475,KCXO,medium_airport,Conroe-North Houston Regional Airport,30.351801,-95.414497,245,NA,US,US-TX,Houston,no,KCXO,CXO,CXO
3476,KCYS,medium_airport,Cheyenne Regional Jerry Olson Field,41.15570068,-104.8119965,6159,NA,US,US-WY,Cheyenne,yes,KCYS,CYS,CYS
3477,KDAA,medium_airport,Davison Army Air Field,38.7150001526,-77.1809997559,73,NA,US,US-VA,Fort Belvoir,no,KDAA,DAA,DAA
3478,KDAB,large_airport,Daytona Beach International Airport,29.179899,-81.058098,34,NA,US,US-FL,Daytona Beach,yes,KDAB,DAB,DAB
19615,KDAG,medium_airport,Barstow Daggett Airport,34.85369873,-116.7870026,1930,NA,US,US-CA,Daggett,no,KDAG,DAG,DAG
3479,KDAL,large_airport,Dallas Love Field,32.847099,-96.851799,487,NA,US,US-TX,Dallas,yes,KDAL,DAL,DAL
3480,KDAN,medium_airport,Danville Regional Airport,36.5728988647461,-79.3360977172852,571,NA,US,US-VA,Danville,no,KDAN,DAN,DAN
3481,KDAY,large_airport,James M Cox Dayton International Airport,39.902400970459,-84.2193984985352,1009,NA,US,US-OH,Dayton,yes,KDAY,DAY,DAY
3482,KDBQ,large_airport,Dubuque Regional Airport,42.40200043,-90.70950317,1077,NA,US,US-IA,Dubuque,yes,KDBQ,DBQ,DBQ
3483,KDCA,large_airport,Ronald Reagan Washington National Airport,38.8521,-77.037697,15,NA,US,US-DC,Washington,yes,KDCA,DCA,DCA
3484,KDDC,medium_airport,Dodge City Regional Airport,37.7634010314941,-99.9655990600586,2594,NA,US,US-KS,Dodge City,yes,KDDC,DDC,DDC
3485,KDEC,medium_airport,Decatur Airport,39.8345985412598,-88.8656997680664,682,NA,US,US-IL,Decatur,yes,KDEC,DEC,DEC
3486,KDEN,large_airport,Denver International Airport,39.861698150635,-104.672996521,5431,NA,US,US-CO,Denver,yes,KDEN,DEN,DEN
3487,KDET,medium_airport,Coleman A. Young Municipal Airport,42.40919876,-83.00990295,626,NA,US,US-MI,Detroit,no,KDET,DET,DET
3488,KDFW,large_airport,Dallas Fort Worth International Airport,32.896801,-97.038002,607,NA,US,US-TX,Dallas-Fort Worth,yes,KDFW,DFW,DFW
3489,KDHN,medium_airport,Dothan Regional Airport,31.3213005065918,-85.4496002197266,401,NA,US,US-AL,Dothan,yes,KDHN,DHN,DHN
19628,KDHT,medium_airport,Dalhart Municipal Airport,36.0225982666,-102.54699707,3991,NA,US,US-TX,Dalhart,no,KDHT,DHT,DHT
19630,KDIK,medium_airport,Dickinson Theodore Roosevelt Regional Airport,46.7974014282,-102.802001953,2592,NA,US,US-ND,Dickinson,no,KDIK,DIK,DIK
3490,KDLF,large_airport,DLF Airport,29.359501,-100.778002,1082,NA,US,US-TX,Del Rio,no,KDLF,DLF,DLF
3491,KDLH,large_airport,Duluth International Airport,46.8420982361,-92.1936035156,1428,NA,US,US-MN,Duluth,yes,KDLH,DLH,DLH
19640,KDLS,medium_airport,Columbia Gorge Regional the Dalles Municipal Airport,45.6184997559,-121.166999817,247,NA,US,US-OR,The Dalles,no,KDLS,DLS,DLS
3492,KDMA,medium_airport,Davis Monthan Air Force Base,32.1665000916,-110.883003235,2704,NA,US,US-AZ,Tucson,no,KDMA,DMA,DMA
3493,KDMN,medium_airport,Deming Municipal Airport,32.262298584,-107.721000671,4314,NA,US,US-NM,Deming,no,KDMN,DMN,DMN
19644,KDNL,medium_airport,Daniel Field,33.4664993286,-82.0393981934,423,NA,US,US-GA,Augusta,no,KDNL,DNL,DNL
3494,KDOV,large_airport,Dover Air Force Base,39.12950134,-75.46600342,24,NA,US,US-DE,Dover,no,KDOV,DOV,DOV
19648,KDPA,medium_airport,Dupage Airport,41.90779877,-88.24859619,759,NA,US,US-IL,Chicago/West Chicago,no,KDPA,DPA,DPA
19652,KDRA,medium_airport,Desert Rock Airport,36.6194,-116.032997,3314,NA,US,US-NV,Mercury,no,KDRA,DRA,NV65
3495,KDRI,medium_airport,Beauregard Regional Airport,30.8316993713,-93.3398971558,202,NA,US,US-LA,De Ridder,no,KDRI,DRI,DRI
19655,KDRT,medium_airport,Del Rio International Airport,29.3742008209,-100.927001953,1002,NA,US,US-TX,Del Rio,no,KDRT,DRT,DRT
3496,KDSM,large_airport,Des Moines International Airport,41.5340003967285,-93.6631011962891,958,NA,US,US-IA,Des Moines,yes,KDSM,DSM,DSM
3497,KDTW,large_airport,Detroit Metropolitan Wayne County Airport,42.2123985290527,-83.353401184082,645,NA,US,US-MI,Detroit,yes,KDTW,DTW,DTW
19664,KDUG,medium_airport,Bisbee Douglas International Airport,31.4689998627,-109.603996277,4154,NA,US,US-AZ,Douglas Bisbee,no,KDUG,DUG,DUG
3498,KDUJ,medium_airport,DuBois Regional Airport,41.17829895,-78.8986969,1817,NA,US,US-PA,Dubois,yes,KDUJ,DUJ,DUJ
3499,KDYS,large_airport,Dyess Air Force Base,32.4207992554,-99.854598999,1789,NA,US,US-TX,Abilene,no,KDYS,DYS,DYS
19717,KEAT,medium_airport,Pangborn Memorial Airport,47.3988990784,-120.207000732,1249,NA,US,US-WA,Wenatchee,no,KEAT,EAT,EAT
3501,KEAU,medium_airport,Chippewa Valley Regional Airport,44.8657989501953,-91.4842987060547,913,NA,US,US-WI,Eau Claire,yes,KEAU,EAU,EAU
3502,KECG,medium_airport,Elizabeth City Regional Airport & Coast Guard Air Station,36.26060104,-76.17459869,12,NA,US,US-NC,Elizabeth City,no,KECG,ECG,ECG
46530,KECP,medium_airport,Northwest Florida Beaches International Airport,30.357106,-85.795414,69,NA,US,US-FL,Panama City Beach,yes,KECP,ECP,ECP
3503,KEDW,large_airport,Edwards Air Force Base,34.905399,-117.884003,2312,NA,US,US-CA,Edwards,no,KEDW,EDW,EDW
19727,KEED,medium_airport,Needles Airport,34.7663002014,-114.623001099,983,NA,US,US-CA,Needles,no,KEED,EED,EED
3504,KEEN,medium_airport,Dillant Hopkins Airport,42.8983993530273,-72.2707977294922,488,NA,US,US-NH,Keene,no,KEEN,EEN,EEN
19729,KEET,medium_airport,Shelby County Airport,33.17699814,-86.78279877,586,NA,US,US-AL,Alabaster,no,KEET,,EET
19731,KEFD,medium_airport,Ellington Airport,29.6072998047,-95.1587982178,32,NA,US,US-TX,Houston,no,KEFD,EFD,EFD
3505,KEGE,medium_airport,Eagle County Regional Airport,39.64260101,-106.9179993,6548,NA,US,US-CO,Eagle,yes,KEGE,EGE,EGE
19735,KEGI,medium_airport,Duke Field,30.65040016,-86.52290344,191,NA,US,US-FL,Crestview,no,KEGI,EGI,EGI
3506,KEKA,medium_airport,Murray Field,40.8033981323,-124.112998962,7,NA,US,US-CA,Eureka,no,KEKA,EKA,EKA
3507,KEKN,medium_airport,Elkins-Randolph Co-Jennings Randolph Field,38.88940048,-79.85710144,1987,NA,US,US-WV,Elkins,no,KEKN,EKN,EKN
3508,KEKO,medium_airport,Elko Regional Airport,40.8249015808106,-115.791999816895,5140,NA,US,US-NV,Elko,yes,KEKO,EKO,EKO
3509,KELD,medium_airport,South Arkansas Regional At Goodwin Field,33.2210006713867,-92.8133010864258,277,NA,US,US-AR,El Dorado,yes,KELD,ELD,ELD
3510,KELM,medium_airport,Elmira Corning Regional Airport,42.1599006652832,-76.8916015625,954,NA,US,US-NY,Elmira/Corning,yes,KELM,ELM,ELM
3511,KELO,medium_airport,Ely Municipal Airport,47.82450104,-91.83070374,1456,NA,US,US-MN,Ely,no,KELO,LYU,ELO
3512,KELP,medium_airport,El Paso International Airport,31.80719948,-106.3779984,3959,NA,US,US-TX,El Paso,yes,KELP,ELP,ELP
19753,KELY,medium_airport,Ely Airport Yelland Field,39.29970169,-114.8420029,6259,NA,US,US-NV,Ely,no,KELY,ELY,ELY
3513,KEND,large_airport,Vance Air Force Base,36.3391990662,-97.9164962769,1307,NA,US,US-OK,Enid,no,KEND,END,END
19760,KENV,medium_airport,Wendover Airport,40.7187004089,-114.03099823,4237,NA,US,US-UT,Wendover,no,KENV,ENV,ENV
3514,KENW,medium_airport,Kenosha Regional Airport,42.59569931,-87.92780304,742,NA,US,US-WI,Kenosha,no,KENW,ENW,ENW
3515,KERI,large_airport,Erie International Tom Ridge Field,42.0831270134,-80.1738667488,732,NA,US,US-PA,Erie,yes,KERI,ERI,ERI
3516,KESF,medium_airport,Esler Regional Airport,31.3948993683,-92.2957992554,112,NA,US,US-LA,Alexandria,no,KESF,ESF,ESF
3517,KEUG,medium_airport,Mahlon Sweet Field,44.1245994567871,-123.21199798584,374,NA,US,US-OR,Eugene,yes,KEUG,EUG,EUG
3518,KEVV,medium_airport,Evansville Regional Airport,38.0369987488,-87.5324020386,418,NA,US,US-IN,Evansville,yes,KEVV,EVV,EVV
19782,KEVW,medium_airport,Evanston-Uinta County Airport-Burns Field,41.27479935,-111.0350037,7143,NA,US,US-WY,Evanston,no,KEVW,EVW,EVW
3519,KEWB,medium_airport,New Bedford Regional Airport,41.6761016845703,-70.956901550293,80,NA,US,US-MA,New Bedford,yes,KEWB,EWB,EWB
3520,KEWN,medium_airport,Coastal Carolina Regional Airport,35.0730018616,-77.0429000854,18,NA,US,US-NC,New Bern,yes,KEWN,EWN,EWN
3521,KEWR,large_airport,Newark Liberty International Airport,40.6925010681152,-74.168701171875,18,NA,US,US-NJ,Newark,yes,KEWR,EWR,EWR
3522,KEYW,medium_airport,Key West International Airport,24.5561008453369,-81.7595977783203,3,NA,US,US-FL,Key West,yes,KEYW,EYW,EYW
19843,KFAF,medium_airport,Felker Army Air Field,37.1324996948,-76.6088027954,12,NA,US,US-VA,Fort Eustis,no,KFAF,FAF,FAF
3523,KFAR,medium_airport,Hector International Airport,46.9207000732422,-96.815803527832,902,NA,US,US-ND,Fargo,yes,KFAR,FAR,FAR
3524,KFAT,medium_airport,Fresno Yosemite International Airport,36.7761993408203,-119.718002319336,336,NA,US,US-CA,Fresno,yes,KFAT,FAT,FAT
3525,KFAY,medium_airport,Fayetteville Regional Grannis Field,34.9911994934082,-78.8803024291992,189,NA,US,US-NC,Fayetteville,yes,KFAY,FAY,FAY
3526,KFBG,medium_airport,Simmons Army Air Field,35.13180161,-78.93669891,244,NA,US,US-NC,Fort Bragg,no,KFBG,FBG,FBG
19851,KFCS,medium_airport,Butts AAF (Fort Carson) Air Field,38.67839813,-104.7570038,5838,NA,US,US-CO,Fort Carson,no,KFCS,FCS,FCS
19857,KFDY,medium_airport,Findlay Airport,41.0135002136,-83.6687011719,813,NA,US,US-OH,Findlay,no,KFDY,FDY,FDY
3528,KFFO,large_airport,Wright-Patterson Air Force Base,39.8260993958,-84.0483016968,823,NA,US,US-OH,Dayton,no,KFFO,FFO,FFO
3529,KFHU,medium_airport,Sierra Vista Municipal Libby Army Air Field,31.5884990692139,-110.34400177002,4719,NA,US,US-AZ,Fort Huachuca Sierra Vista,yes,KFHU,FHU,FHU
19872,KFKL,medium_airport,Venango Regional Airport,41.3778991699,-79.8603973389,1540,NA,US,US-PA,Franklin,no,KFKL,FKL,FKL
3530,KFLG,medium_airport,Flagstaff Pulliam Airport,35.13850021,-111.6709976,7014,NA,US,US-AZ,Flagstaff,yes,KFLG,FLG,FLG
3531,KFLL,large_airport,Fort Lauderdale Hollywood International Airport,26.072599,-80.152702,9,NA,US,US-FL,Fort Lauderdale,yes,KFLL,FLL,FLL
3532,KFLO,medium_airport,Florence Regional Airport,34.1853981018066,-79.7238998413086,146,NA,US,US-SC,Florence,yes,KFLO,FLO,FLO
3534,KFME,medium_airport,Tipton Airport,39.0853996277,-76.7593994141,150,NA,US,US-MD,Fort Meade(Odenton),no,KFME,FME,FME
19881,KFMN,medium_airport,Four Corners Regional Airport,36.7411994934,-108.230003357,5506,NA,US,US-NM,Farmington,no,KFMN,FMN,FMN
19882,KFMY,medium_airport,Page Field,26.58659935,-81.8632965088,17,NA,US,US-FL,Fort Myers,no,KFMY,FMY,FMY
3535,KFNT,medium_airport,Bishop International Airport,42.9654006958008,-83.7435989379883,782,NA,US,US-MI,Flint,yes,KFNT,FNT,FNT
3536,KFOD,medium_airport,Fort Dodge Regional Airport,42.55149841,-94.19259644,1156,NA,US,US-IA,Fort Dodge,yes,KFOD,FOD,FOD
3537,KFOE,medium_airport,Topeka Regional Airport - Forbes Field,38.9509010315,-95.6635971069,1078,NA,US,US-KS,Topeka,no,KFOE,FOE,FOE
3538,KFPR,medium_airport,St Lucie County International Airport,27.49510002,-80.36830139,24,NA,US,US-FL,Fort Pierce,no,KFPR,FPR,FPR
3539,KFRG,medium_airport,Republic Airport,40.7288017273,-73.4133987427,82,NA,US,US-NY,Farmingdale,no,KFRG,FRG,FRG
3540,KFRI,medium_airport,Marshall Army Air Field,39.05530167,-96.76450348,1065,NA,US,US-KS,Fort Riley(Junction City),no,KFRI,FRI,FRI
3541,KFSD,medium_airport,Joe Foss Field Airport,43.5820007324,-96.741897583,1429,NA,US,US-SD,Sioux Falls,yes,KFSD,FSD,FSD
3542,KFSI,medium_airport,Henry Post Army Air Field (Fort Sill),34.64979935,-98.40219879,1189,NA,US,US-OK,Fort Sill,no,KFSI,FSI,FSI
3543,KFSM,large_airport,Fort Smith Regional Airport,35.3366012573242,-94.3674011230469,469,NA,US,US-AR,Fort Smith,yes,KFSM,FSM,FSM
19900,KFST,medium_airport,Fort Stockton Pecos County Airport,30.9157009125,-102.916000366,3011,NA,US,US-TX,Fort Stockton,no,KFST,FST,FST
3544,KFTK,medium_airport,Godman Army Air Field,37.9071006775,-85.9720993042,756,NA,US,US-KY,Fort Knox,no,KFTK,FTK,FTK
3545,KFTW,large_airport,Fort Worth Meacham International Airport,32.819801,-97.362396,710,NA,US,US-TX,Fort Worth,no,KFTW,FTW,FTW
3546,KFTY,medium_airport,Fulton County Airport Brown Field,33.7790985107,-84.5214004517,841,NA,US,US-GA,Atlanta,no,KFTY,FTY,FTY
3547,KFWA,large_airport,Fort Wayne International Airport,40.97850037,-85.19509888,814,NA,US,US-IN,Fort Wayne,yes,KFWA,FWA,FWA
19912,KFXE,medium_airport,Fort Lauderdale Executive Airport,26.1972999573,-80.1707000732,13,NA,US,US-FL,Fort Lauderdale,no,KFXE,FXE,FXE
3548,KFYV,medium_airport,Drake Field,36.0051002502441,-94.1700973510742,1251,NA,US,US-AR,Fayetteville,no,KFYV,FYV,FYV
19929,KGCC,medium_airport,Gillette Campbell County Airport,44.3488998413,-105.539001465,4365,NA,US,US-WY,Gillette,yes,KGCC,GCC,GCC
3550,KGCK,medium_airport,Garden City Regional Airport,37.9275016785,-100.723999023,2891,NA,US,US-KS,Garden City,yes,KGCK,GCK,GCK
3551,KGCN,medium_airport,Grand Canyon National Park Airport,35.9524002075195,-112.147003173828,6609,NA,US,US-AZ,Grand Canyon,yes,KGCN,GCN,GCN
19936,KGDV,medium_airport,Dawson Community Airport,47.13869858,-104.8069992,2458,NA,US,US-MT,Glendive,no,KGDV,GDV,GDV
3552,KGEG,large_airport,Spokane International Airport,47.6198997497559,-117.533996582031,2376,NA,US,US-WA,Spokane,yes,KGEG,GEG,GEG
3553,KGFK,medium_airport,Grand Forks International Airport,47.949299,-97.176102,845,NA,US,US-ND,Grand Forks,yes,KGFK,GFK,GFK
3554,KGFL,medium_airport,Floyd Bennett Memorial Airport,43.3412017822,-73.6102981567,328,NA,US,US-NY,Glens Falls,no,KGFL,GFL,GFL
3555,KGGG,medium_airport,East Texas Regional Airport,32.3839988708496,-94.7115020751953,365,NA,US,US-TX,Longview,yes,KGGG,GGG,GGG
3556,KGGW,medium_airport,Wokal Field Glasgow International Airport,48.212502,-106.614998,2296,NA,US,US-MT,Glasgow,yes,KGGW,GGW,GGW
3557,KGJT,medium_airport,Grand Junction Regional Airport,39.1223983765,-108.527000427,4858,NA,US,US-CO,Grand Junction,yes,KGJT,GJT,GJT
19956,KGLD,medium_airport,Renner Field-Goodland Municipal Airport,39.37060165,-101.6989975,3656,NA,US,US-KS,Goodland,no,KGLD,GLD,GLD
19958,KGLH,medium_airport,Mid Delta Regional Airport,33.4828987121582,-90.9856033325195,131,NA,US,US-MS,Greenville,yes,KGLH,GLH,GLH
3558,KGLS,medium_airport,Scholes International At Galveston Airport,29.2653007507324,-94.8603973388672,6,NA,US,US-TX,Galveston,no,KGLS,GLS,GLS
19963,KGMU,medium_airport,Greenville Downtown Airport,34.8479003906,-82.3499984741,1048,NA,US,US-SC,Greenville,no,KGMU,GMU,GMU
3559,KGNV,medium_airport,Gainesville Regional Airport,29.6900997162,-82.2717971802,152,NA,US,US-FL,Gainesville,yes,KGNV,GNV,GNV
3560,KGON,medium_airport,Groton New London Airport,41.3301010131836,-72.0450973510742,9,NA,US,US-CT,Groton (New London),no,KGON,GON,GON
3527,KGPI,medium_airport,Glacier Park International Airport,48.3105010986328,-114.255996704102,2977,NA,US,US-MT,Kalispell,yes,KGPI,FCA,GPI
3561,KGPT,large_airport,Gulfport Biloxi International Airport,30.4073009490967,-89.0700988769531,28,NA,US,US-MS,Gulfport,yes,KGPT,GPT,GPT
3562,KGRB,large_airport,Austin Straubel International Airport,44.4850997924805,-88.1296005249024,695,NA,US,US-WI,Green Bay,yes,KGRB,GRB,GRB
3563,KGRF,medium_airport,Gray Army Air Field,47.07920074,-122.5810013,300,NA,US,US-WA,Fort Lewis/Tacoma,no,KGRF,GRF,GRF
3564,KGRI,medium_airport,Central Nebraska Regional Airport,40.9674987792969,-98.3096008300781,1847,NA,US,US-NE,Grand Island,yes,KGRI,GRI,GRI
3565,KGRK,medium_airport,Robert Gray  Army Air Field Airport,31.067199707,-97.8289031982,1015,NA,US,US-TX,Fort Hood/Killeen,yes,KGRK,GRK,GRK
3566,KGRR,medium_airport,Gerald R. Ford International Airport,42.88079834,-85.52279663,794,NA,US,US-MI,Grand Rapids,yes,KGRR,GRR,GRR
3567,KGSB,large_airport,Seymour Johnson Air Force Base,35.33940125,-77.96060181,109,NA,US,US-NC,Goldsboro,no,KGSB,GSB,GSB
3568,KGSO,large_airport,Piedmont Triad International Airport,36.0978012084961,-79.9373016357422,925,NA,US,US-NC,Greensboro,yes,KGSO,GSO,GSO
3569,KGSP,large_airport,Greenville Spartanburg International Airport,34.8956985474,-82.2189025879,964,NA,US,US-SC,Greenville,yes,KGSP,GSP,GSP
3570,KGTB,medium_airport,Wheeler Sack Army Air Field,44.05559921,-75.71949768,688,NA,US,US-NY,Fort Drum,no,KGTB,,GTB
3571,KGTF,medium_airport,Great Falls International Airport,47.48199844,-111.3710022,3680,NA,US,US-MT,Great Falls,yes,KGTF,GTF,GTF
19982,KGTR,medium_airport,Golden Triangle Regional Airport,33.4502983093,-88.5914001465,264,NA,US,US-MS,Columbus/W Point/Starkville,yes,KGTR,GTR,GTR
3572,KGUP,medium_airport,Gallup Municipal Airport,35.511100769,-108.789001465,6472,NA,US,US-NM,Gallup,no,KGUP,GUP,GUP
3573,KGUS,large_airport,Grissom Air Reserve Base,40.6481018066,-86.1520996094,812,NA,US,US-IN,Peru,no,KGUS,GUS,GUS
19985,KGUY,medium_airport,Guymon Municipal Airport,36.6851005554,-101.508003235,3123,NA,US,US-OK,Guymon,no,KGUY,GUY,GUY
3574,KGWO,medium_airport,Greenwoodâ€“Leflore Airport,33.4943008423,-90.0847015381,162,NA,US,US-MS,Greenwood,no,KGWO,GWO,GWO
3575,KGYY,medium_airport,Gary Chicago International Airport,41.6162986755371,-87.4128036499024,591,NA,US,US-IN,Gary,no,KGYY,GYY,GYY
20027,KHBG,medium_airport,Hattiesburg Bobby L Chain Municipal Airport,31.26479912,-89.25279999,151,NA,US,US-MS,Hattiesburg,no,KHBG,HBG,HBG
20029,KHBR,medium_airport,Hobart Regional Airport,34.991317,-99.051313,1563,NA,US,US-OK,Hobart,no,KHBR,HBR,HBR
3576,KHFD,medium_airport,Hartford Brainard Airport,41.736698150635,-72.649398803711,18,NA,US,US-CT,Hartford,no,KHFD,HFD,HFD
3577,KHGR,medium_airport,Hagerstown Regional Richard A Henson Field,39.707901,-77.72949982,703,NA,US,US-MD,Hagerstown,no,KHGR,HGR,HGR
3578,KHHR,medium_airport,Jack Northrop Field Hawthorne Municipal Airport,33.922798,-118.334999,66,NA,US,US-CA,Hawthorne,no,KHHR,HHR,HHR
3579,KHIB,large_airport,Range Regional Airport,47.38660049,-92.83899689,1354,NA,US,US-MN,Hibbing,yes,KHIB,HIB,HIB
3580,KHIF,medium_airport,Hill Air Force Base,41.12403,-111.973086,4789,NA,US,US-UT,Ogden,no,KHIF,HIF,HIF
20054,KHIO,medium_airport,Portland Hillsboro Airport,45.540401,-122.949997,208,NA,US,US-OR,Portland,no,KHIO,HIO,HIO
3581,KHKY,medium_airport,Hickory Regional Airport,35.74110031,-81.38950348,1190,NA,US,US-NC,Hickory,no,KHKY,HKY,HKY
20061,KHLG,medium_airport,Wheeling Ohio County Airport,40.1749992371,-80.6463012695,1195,NA,US,US-WV,Wheeling,no,KHLG,HLG,HLG
3582,KHLN,medium_airport,Helena Regional Airport,46.6068000793457,-111.983001708984,3877,NA,US,US-MT,Helena,yes,KHLN,HLN,HLN
3583,KHLR,medium_airport,Hood Army Air Field,31.1387004852,-97.7145004272,924,NA,US,US-TX,Fort Hood(Killeen),no,KHLR,HLR,HLR
3584,KHMN,large_airport,Holloman Air Force Base,32.8525009155,-106.107002258,4093,NA,US,US-NM,Alamogordo,no,KHMN,HMN,HMN
20071,KHOB,medium_airport,Lea County Regional Airport,32.6875,-103.2170029,3661,NA,US,US-NM,Hobbs,no,KHOB,HOB,HOB
3585,KHON,medium_airport,Huron Regional Airport,44.3852005004883,-98.2285003662109,1289,NA,US,US-SD,Huron,yes,KHON,HON,HON
3586,KHOP,medium_airport,Campbell AAF (Fort Campbell) Air Field,36.668598175,-87.4962005615,573,NA,US,US-KY,Fort Campbell/Hopkinsville,no,KHOP,HOP,HOP
3587,KHOT,medium_airport,Memorial Field,34.4780006408691,-93.0961990356445,540,NA,US,US-AR,Hot Springs,yes,KHOT,HOT,HOT
3588,KHOU,large_airport,William P Hobby Airport,29.64539909,-95.27890015,46,NA,US,US-TX,Houston,yes,KHOU,HOU,HOU
3589,KHPN,medium_airport,Westchester County Airport,41.0670013427734,-73.7076034545899,439,NA,US,US-NY,White Plains,yes,KHPN,HPN,HPN
3590,KHQM,medium_airport,Bowerman Airport,46.9711990356,-123.93699646,18,NA,US,US-WA,Hoquiam,no,KHQM,HQM,HQM
3591,KHRL,medium_airport,Valley International Airport,26.2285003662109,-97.6544036865234,36,NA,US,US-TX,Harlingen,yes,KHRL,HRL,HRL
3592,KHRO,medium_airport,Boone County Airport,36.2615013122559,-93.1547012329102,1365,NA,US,US-AR,Harrison,yes,KHRO,HRO,HRO
20081,KHRT,medium_airport,Hurlburt Field,30.4277992248535,-86.6893005371094,38,NA,US,US-FL,Mary Esther,no,KHRT,,HRT
3593,KHST,medium_airport,Homestead ARB Airport,25.48859978,-80.38359833,5,NA,US,US-FL,Homestead,no,KHST,HST,HST
3594,KHSV,large_airport,Huntsville International Carl T Jones Field,34.637199401855,-86.775100708008,629,NA,US,US-AL,Huntsville,yes,KHSV,HSV,HSV
3595,KHTS,large_airport,Tri-State/Milton J. Ferguson Field,38.36669922,-82.55799866,828,NA,US,US-WV,Huntington,yes,KHTS,HTS,HTS
3596,KHUA,medium_airport,Redstone Army Air Field,34.67869949,-86.68479919,684,NA,US,US-AL,Redstone Arsnl Huntsville,no,KHUA,HUA,HUA
3597,KHUF,medium_airport,"Terre Haute Regional Airport, Hulman Field",39.4515,-87.307602,589,NA,US,US-IN,Terre Haute,no,KHUF,HUF,HUF
20095,KHUL,medium_airport,Houlton International Airport,46.1231002808,-67.792098999,489,NA,US,US-ME,Houlton,no,KHUL,HUL,HUL
3598,KHUT,medium_airport,Hutchinson Municipal Airport,38.0654983521,-97.8606033325,1543,NA,US,US-KS,Hutchinson,no,KHUT,HUT,HUT
3599,KHVN,medium_airport,Tweed New Haven Airport,41.26369858,-72.88680267,12,NA,US,US-CT,New Haven,yes,KHVN,HVN,HVN
20099,KHVR,medium_airport,Havre City County Airport,48.54299927,-109.762001,2591,NA,US,US-MT,Havre,no,KHVR,HVR,HVR
3600,KHYA,medium_airport,Barnstable Municipal Boardman Polando Field,41.66930008,-70.28040314,54,NA,US,US-MA,Hyannis,yes,KHYA,HYA,HYA
20107,KHYI,medium_airport,San Marcos Regional Airport,29.8927,-97.862999,597,NA,US,US-TX,San Marcos,no,KHYI,,HYI
20108,KHYR,medium_airport,Sawyer County Airport,46.0251998901,-91.4442977905,1216,NA,US,US-WI,Hayward,no,KHYR,HYR,HYR
20109,KHYS,medium_airport,Hays Regional Airport,38.84220123,-99.27320099,1999,NA,US,US-KS,Hays,no,KHYS,HYS,HYS
3601,KIAB,medium_airport,Mc Connell Air Force Base,37.62189865,-97.26820374,1371,NA,US,US-KS,Wichita,no,KIAB,IAB,IAB
3602,KIAD,large_airport,Washington Dulles International Airport,38.94449997,-77.45580292,312,NA,US,US-DC,Washington,yes,KIAD,IAD,IAD
3603,KIAG,medium_airport,Niagara Falls International Airport,43.1072998046875,-78.9461975097656,589,NA,US,US-NY,Niagara Falls,no,KIAG,IAG,IAG
3604,KIAH,large_airport,George Bush Intercontinental Houston Airport,29.9843997955322,-95.3414001464844,97,NA,US,US-TX,Houston,yes,KIAH,IAH,IAH
3605,KICT,large_airport,Wichita Eisenhower National Airport,37.649899,-97.433098,1333,NA,US,US-KS,Wichita,yes,KICT,ICT,ICT
3606,KIDA,medium_airport,Idaho Falls Regional Airport,43.514599,-112.070999,4744,NA,US,US-ID,Idaho Falls,yes,KIDA,IDA,IDA
3607,KIKK,medium_airport,Greater Kankakee Airport,41.0713996887,-87.8462982178,630,NA,US,US-IL,Kankakee,no,KIKK,IKK,IKK
3608,KILG,medium_airport,New Castle Airport,39.67869949,-75.60649872,80,NA,US,US-DE,Wilmington,yes,KILG,ILG,ILG
3609,KILM,medium_airport,Wilmington International Airport,34.2705993652344,-77.9026031494141,32,NA,US,US-NC,Wilmington,yes,KILM,ILM,ILM
20173,KILN,medium_airport,Wilmington Airpark,39.427898407,-83.792098999,1077,NA,US,US-OH,Wilmington,no,KILN,ILN,ILN
3610,KIND,large_airport,Indianapolis International Airport,39.7173,-86.294403,797,NA,US,US-IN,Indianapolis,yes,KIND,IND,IND
3611,KINK,medium_airport,Winkler County Airport,31.7796001434,-103.200996399,2822,NA,US,US-TX,Wink,no,KINK,INK,INK
3612,KINL,medium_airport,Falls International Airport,48.5662002563477,-93.4030990600586,1185,NA,US,US-MN,International Falls,yes,KINL,INL,INL
3613,KINT,medium_airport,Smith Reynolds Airport,36.1337013244629,-80.2220001220703,969,NA,US,US-NC,Winston Salem,no,KINT,INT,INT
20180,KINW,medium_airport,Winslow Lindbergh Regional Airport,35.021900177,-110.722999573,4941,NA,US,US-AZ,Winslow,no,KINW,INW,INW
20184,KIPL,medium_airport,Imperial County Airport,32.8342018127,-115.57900238,-54,NA,US,US-CA,Imperial,no,KIPL,IPL,IPL
3614,KIPT,medium_airport,Williamsport Regional Airport,41.2417984008789,-76.9210968017578,529,NA,US,US-PA,Williamsport,yes,KIPT,IPT,IPT
3615,KIRK,medium_airport,Kirksville Regional Airport,40.0934982299805,-92.5448989868164,966,NA,US,US-MO,Kirksville,yes,KIRK,IRK,IRK
20187,KISM,medium_airport,Kissimmee Gateway Airport,28.2898006439,-81.4371032715,82,NA,US,US-FL,Orlando,no,KISM,ISM,ISM
20188,KISN,medium_airport,Sloulin Field International Airport,48.177898407,-103.641998291,1982,NA,US,US-ND,Williston,no,KISN,ISN,ISN
20189,KISO,medium_airport,Kinston Regional Jetport At Stallings Field,35.331401825,-77.6088027954,93,NA,US,US-NC,Kinston,no,KISO,ISO,ISO
3616,KISP,medium_airport,Long Island Mac Arthur Airport,40.79520035,-73.10019684,99,NA,US,US-NY,Islip,yes,KISP,ISP,ISP
20193,KITH,medium_airport,Ithaca Tompkins Regional Airport,42.4910011291504,-76.4583969116211,1099,NA,US,US-NY,Ithaca,yes,KITH,ITH,ITH
3617,KIWA,medium_airport,Phoenix-Mesa-Gateway Airport,33.30780029,-111.6549988,1382,NA,US,US-AZ,Phoenix,no,KIWA,AZA,IWA
3618,KJAC,medium_airport,Jackson Hole Airport,43.6072998046875,-110.737998962402,6451,NA,US,US-WY,Jackson,yes,KJAC,JAC,JAC
3619,KJAN,large_airport,Jackson-Medgar Wiley Evers International Airport,32.3111991882,-90.0758972168,346,NA,US,US-MS,Jackson,yes,KJAN,JAN,JAN
3620,KJAX,large_airport,Jacksonville International Airport,30.4941005706787,-81.6878967285156,30,NA,US,US-FL,Jacksonville,yes,KJAX,JAX,JAX
3621,KJBR,medium_airport,Jonesboro Municipal Airport,35.8316993713379,-90.6464004516602,262,NA,US,US-AR,Jonesboro,yes,KJBR,JBR,JBR
20205,KJCT,medium_airport,Kimble County Airport,30.5112991333,-99.7634963989,1749,NA,US,US-TX,Junction,no,KJCT,JCT,JCT
3622,KJFK,large_airport,John F Kennedy International Airport,40.63980103,-73.77890015,13,NA,US,US-NY,New York,yes,KJFK,JFK,JFK
20213,KJHW,medium_airport,Chautauqua County-Jamestown Airport,42.15340042,-79.25800323,1723,NA,US,US-NY,Jamestown,no,KJHW,JHW,JHW
20216,KJKL,medium_airport,Julian Carroll Airport,37.5938987731934,-83.3172988891602,1381,NA,US,US-KY,Jackson,no,KJKL,,JKL
3623,KJLN,large_airport,Joplin Regional Airport,37.151798248291,-94.4982986450195,981,NA,US,US-MO,Joplin,yes,KJLN,JLN,JLN
3624,KJMS,medium_airport,Jamestown Regional Airport,46.92969894,-98.67819977,1500,NA,US,US-ND,Jamestown,yes,KJMS,JMS,JMS
3625,KJST,medium_airport,John Murtha Johnstown Cambria County Airport,40.3161010742187,-78.8339004516602,2284,NA,US,US-PA,Johnstown,yes,KJST,JST,JST
3626,KJXN,medium_airport,Jackson County Reynolds Field,42.2597999573,-84.4593963623,1001,NA,US,US-MI,Jackson,no,KJXN,JXN,JXN
20277,KKLS,medium_airport,Southwest Washington Regional Airport,46.1180000305,-122.898002625,20,NA,US,US-WA,Kelso,no,KKLS,KLS,KLS
3627,KLAF,medium_airport,Purdue University Airport,40.4123001098633,-86.936897277832,606,NA,US,US-IN,Lafayette,no,KLAF,LAF,LAF
3628,KLAL,medium_airport,Lakeland Linder International Airport,27.988899,-82.018602,142,NA,US,US-FL,Lakeland,no,KLAL,LAL,LAL
3629,KLAN,medium_airport,Capital City Airport,42.7787017822266,-84.58740234375,861,NA,US,US-MI,Lansing,yes,KLAN,LAN,LAN
3630,KLAR,medium_airport,Laramie Regional Airport,41.3120994567871,-105.675003051758,7284,NA,US,US-WY,Laramie,yes,KLAR,LAR,LAR
3631,KLAS,large_airport,McCarran International Airport,36.08010101,-115.1520004,2181,NA,US,US-NV,Las Vegas,yes,KLAS,LAS,LAS
20319,KLAW,medium_airport,Lawton Fort Sill Regional Airport,34.5676994324,-98.4166030884,1110,NA,US,US-OK,Lawton,no,KLAW,LAW,LAW
3632,KLAX,large_airport,Los Angeles International Airport,33.94250107,-118.4079971,125,NA,US,US-CA,Los Angeles,yes,KLAX,LAX,LAX
3633,KLBB,large_airport,Lubbock Preston Smith International Airport,33.663601,-101.822998,3282,NA,US,US-TX,Lubbock,yes,KLBB,LBB,LBB
3634,KLBE,medium_airport,Arnold Palmer Regional Airport,40.27590179,-79.40480042,1199,NA,US,US-PA,Latrobe,yes,KLBE,LBE,LBE
3635,KLBF,medium_airport,North Platte Regional Airport Lee Bird Field,41.12620163,-100.6839981,2777,NA,US,US-NE,North Platte,yes,KLBF,LBF,LBF
3636,KLBL,medium_airport,Liberal Mid-America Regional Airport,37.0442009,-100.9599991,2885,NA,US,US-KS,Liberal,yes,KLBL,LBL,LBL
20322,KLBT,medium_airport,Lumberton Regional Airport,34.6099014282,-79.0594024658,126,NA,US,US-NC,Lumberton,no,KLBT,LBT,LBT
20323,KLBX,medium_airport,Texas Gulf Coast Regional Airport,29.1086006165,-95.462097168,25,NA,US,US-TX,Angleton/Lake Jackson,no,KLBX,LJN,LBX
3637,KLCH,medium_airport,Lake Charles Regional Airport,30.1261005401611,-93.2232971191406,15,NA,US,US-LA,Lake Charles,yes,KLCH,LCH,LCH
3638,KLCK,large_airport,Rickenbacker International Airport,39.813801,-82.927803,744,NA,US,US-OH,Columbus,yes,KLCK,LCK,LCK
3639,KLEB,medium_airport,Lebanon Municipal Airport,43.6260986328,-72.3041992188,603,NA,US,US-NH,Lebanon,yes,KLEB,LEB,LEB
20329,KLEE,medium_airport,Leesburg International Airport,28.82309914,-81.80870056,76,NA,US,US-FL,Leesburg,no,KLEE,LEE,LEE
3640,KLEX,large_airport,Blue Grass Airport,38.0364990234375,-84.6059036254883,979,NA,US,US-KY,Lexington,yes,KLEX,LEX,LEX
3641,KLFI,large_airport,Langley Air Force Base,37.082901001,-76.360496521,11,NA,US,US-VA,Hampton,no,KLFI,LFI,LFI
20332,KLFK,medium_airport,Angelina County Airport,31.2339992523,-94.75,296,NA,US,US-TX,Lufkin,no,KLFK,LFK,LFK
3642,KLFT,large_airport,Lafayette Regional Airport,30.20529938,-91.98760223,42,NA,US,US-LA,Lafayette,yes,KLFT,LFT,LFT
3643,KLGA,large_airport,La Guardia Airport,40.77719879,-73.87259674,21,NA,US,US-NY,New York,yes,KLGA,LGA,LGA
3644,KLGB,medium_airport,Long Beach /Daugherty Field/ Airport,33.81769943,-118.1520004,60,NA,US,US-CA,Long Beach,yes,KLGB,LGB,LGB
20337,KLGU,medium_airport,Logan-Cache Airport,41.7911987305,-111.851997375,4457,NA,US,US-UT,Logan,no,KLGU,LGU,LGU
3645,KLIT,large_airport,Bill & Hillary Clinton National Airport/Adams Field,34.7294006348,-92.2242965698,262,NA,US,US-AR,Little Rock,yes,KLIT,LIT,LIT
20354,KLLQ,medium_airport,Monticello Municipal Ellis Field,33.6385994,-91.75099945,270,NA,US,US-AR,Monticello,no,KLLQ,,LLQ
3646,KLMT,medium_airport,Crater Lake-Klamath Regional Airport,42.156101,-121.733002,4095,NA,US,US-OR,Klamath Falls,yes,KLMT,LMT,LMT
20359,KLND,medium_airport,Hunt Field,42.8152008057,-108.730003357,5586,NA,US,US-WY,Lander,no,KLND,LND,LND
3647,KLNK,medium_airport,Lincoln Airport,40.851001739502,-96.7592010498047,1219,NA,US,US-NE,Lincoln,yes,KLNK,LNK,LNK
3648,KLNS,medium_airport,Lancaster Airport,40.1217002868652,-76.2960968017578,403,NA,US,US-PA,Lancaster,yes,KLNS,LNS,LNS
20364,KLOL,medium_airport,Derby Field,40.0663986206,-118.565002441,3904,NA,US,US-NV,Lovelock,no,KLOL,LOL,LOL
3649,KLOU,medium_airport,Bowman Field,38.2280006409,-85.6636962891,546,NA,US,US-KY,Louisville,no,KLOU,LOU,LOU
3650,KLOZ,medium_airport,London-Corbin Airport/Magee Field,37.0821990967,-84.0848999023,1212,NA,US,US-KY,London,no,KLOZ,LOZ,LOZ
3651,KLRD,medium_airport,Laredo International Airport,27.5438003540039,-99.4616012573242,508,NA,US,US-TX,Laredo,yes,KLRD,LRD,LRD
3652,KLRF,medium_airport,Little Rock Air Force Base,34.9169006348,-92.1496963501,311,NA,US,US-AR,Jacksonville,no,KLRF,LRF,LRF
3653,KLRU,medium_airport,Las Cruces International Airport,32.2893981933594,-106.921997070313,4456,NA,US,US-NM,Las Cruces,no,KLRU,LRU,LRU
3654,KLSE,medium_airport,La Crosse Municipal Airport,43.879002,-91.256699,655,NA,US,US-WI,La Crosse,yes,KLSE,LSE,LSE
3655,KLSF,medium_airport,Lawson Army Air Field (Fort Benning),32.3372993469,-84.9913024902,232,NA,US,US-GA,Fort Benning(Columbus),no,KLSF,LSF,LSF
3656,KLSV,medium_airport,Nellis Air Force Base,36.2361984253,-115.033996582,1870,NA,US,US-NV,Las Vegas,no,KLSV,LSV,LSV
3657,KLTS,large_airport,Altus Air Force Base,34.667098999,-99.2667007446,1382,NA,US,US-OK,Altus,no,KLTS,LTS,LTS
3658,KLUF,large_airport,Luke Air Force Base,33.5349998474,-112.383003235,1085,NA,US,US-AZ,Glendale,no,KLUF,LUF,LUF
3659,KLUK,medium_airport,Cincinnati Municipal Airport Lunken Field,39.10329819,-84.41860199,483,NA,US,US-OH,Cincinnati,no,KLUK,LUK,LUK
20386,KLVM,medium_airport,Mission Field,45.6994018555,-110.447998047,4660,NA,US,US-MT,Livingston,no,KLVM,LVM,LVM
20388,KLVS,medium_airport,Las Vegas Municipal Airport,35.6542015076,-105.141998291,6877,NA,US,US-NM,Las Vegas,no,KLVS,LVS,LVS
20390,KLWB,medium_airport,Greenbrier Valley Airport,37.8582992554,-80.3994979858,2302,NA,US,US-WV,Lewisburg,no,KLWB,LWB,LWB
3660,KLWM,medium_airport,Lawrence Municipal Airport,42.7172012329,-71.1233978271,148,NA,US,US-MA,Lawrence,no,KLWM,LWM,LWM
20393,KLWS,medium_airport,Lewiston Nez Perce County Airport,46.3745002746582,-117.014999389648,1442,NA,US,US-ID,Lewiston,yes,KLWS,LWS,LWS
3661,KLWT,medium_airport,Lewistown Municipal Airport,47.0493011474609,-109.467002868652,4170,NA,US,US-MT,Lewistown,yes,KLWT,LWT,LWT
3662,KLYH,medium_airport,Lynchburg Regional Preston Glenn Field,37.3266983032227,-79.2004013061523,938,NA,US,US-VA,Lynchburg,yes,KLYH,LYH,LYH
3663,KMAF,medium_airport,Midland International Airport,31.9424991607666,-102.202003479004,2871,NA,US,US-TX,Midland,yes,KMAF,MAF,MAF
20474,KMBG,medium_airport,Mobridge Municipal Airport,45.54650116,-100.4079971,1716,NA,US,US-SD,Mobridge,no,KMBG,MBG,MBG
3664,KMBS,large_airport,MBS International Airport,43.532901763916,-84.0795974731445,668,NA,US,US-MI,Saginaw,yes,KMBS,MBS,MBS
3665,KMCB,medium_airport,Mc Comb/Pike County Airport/John E Lewis Field,31.17849922,-90.47190094,413,NA,US,US-MS,Mc Comb,no,KMCB,MCB,MCB
3666,KMCC,medium_airport,Mc Clellan Airfield,38.66759872,-121.401001,77,NA,US,US-CA,Sacramento,no,KMCC,MCC,MCC
20480,KMCE,medium_airport,Merced Regional Macready Field,37.28469849,-120.5139999,155,NA,US,US-CA,Merced,no,KMCE,MCE,MCE
3667,KMCF,large_airport,Mac Dill Air Force Base,27.84930038,-82.52120209,14,NA,US,US-FL,Tampa,no,KMCF,MCF,MCF
3668,KMCI,large_airport,Kansas City International Airport,39.2976,-94.713898,1026,NA,US,US-MO,Kansas City,yes,KMCI,MCI,MCI
20481,KMCK,medium_airport,Mc Cook Ben Nelson Regional Airport,40.20629883,-100.5920029,2583,NA,US,US-NE,Mc Cook,no,KMCK,MCK,MCK
3669,KMCN,medium_airport,Middle Georgia Regional Airport,32.692798614502,-83.6492004394531,354,NA,US,US-GA,Macon,yes,KMCN,MCN,MCN
3670,KMCO,large_airport,Orlando International Airport,28.4293994903564,-81.3089981079102,96,NA,US,US-FL,Orlando,yes,KMCO,MCO,MCO
20482,KMCW,medium_airport,Mason City Municipal Airport,43.1577987671,-93.3312988281,1213,NA,US,US-IA,Mason City,no,KMCW,MCW,MCW
3671,KMDH,medium_airport,Southern Illinois Airport,37.7780990600586,-89.2519989013672,411,NA,US,US-IL,Carbondale/Murphysboro,no,KMDH,MDH,MDH
3672,KMDT,medium_airport,Harrisburg International Airport,40.1935005188,-76.7633972168,310,NA,US,US-PA,Harrisburg,yes,KMDT,MDT,MDT
3673,KMDW,large_airport,Chicago Midway International Airport,41.785999,-87.752403,620,NA,US,US-IL,Chicago,yes,KMDW,MDW,MDW
3674,KMEI,medium_airport,Key Field,32.3325996398926,-88.7518997192383,297,NA,US,US-MS,Meridian,yes,KMEI,MEI,MEI
3675,KMEM,large_airport,Memphis International Airport,35.0424003601074,-89.9766998291016,341,NA,US,US-TN,Memphis,yes,KMEM,MEM,MEM
3676,KMER,medium_airport,Castle Airport,37.38050079,-120.5680008,191,NA,US,US-CA,Merced,no,KMER,MER,MER
3677,KMFD,medium_airport,Mansfield Lahm Regional Airport,40.8213996887,-82.5166015625,1297,NA,US,US-OH,Mansfield,no,KMFD,MFD,MFD
3678,KMFE,medium_airport,Mc Allen Miller International Airport,26.17580032,-98.23860168,107,NA,US,US-TX,Mc Allen,yes,KMFE,MFE,MFE
3679,KMFR,medium_airport,Rogue Valley International Medford Airport,42.3741989135742,-122.873001098633,1335,NA,US,US-OR,Medford,yes,KMFR,MFR,MFR
3680,KMGE,large_airport,Dobbins Air Reserve Base,33.91540146,-84.51629639,1068,NA,US,US-GA,Marietta,no,KMGE,MGE,MGE
3681,KMGM,large_airport,Montgomery Regional (Dannelly Field) Airport,32.30059814,-86.39399719,221,NA,US,US-AL,Montgomery,yes,KMGM,MGM,MGM
3682,KMGW,medium_airport,Morgantown Municipal Walter L. Bill Hart Field,39.64289856,-79.91629791,1248,NA,US,US-WV,Morgantown,yes,KMGW,MGW,MGW
3683,KMHK,medium_airport,Manhattan Regional Airport,39.140998840332,-96.6707992553711,1057,NA,US,US-KS,Manhattan,yes,KMHK,MHK,MHK
20506,KMHR,medium_airport,Sacramento Mather Airport,38.55390167,-121.2979965,98,NA,US,US-CA,Sacramento,no,KMHR,MHR,MHR
3684,KMHT,large_airport,Manchester-Boston Regional Airport,42.932598,-71.435699,266,NA,US,US-NH,Manchester,yes,KMHT,MHT,MHT
3685,KMIA,large_airport,Miami International Airport,25.7931995391846,-80.2906036376953,8,NA,US,US-FL,Miami,yes,KMIA,MIA,MIA
3686,KMIB,medium_airport,Minot Air Force Base,48.4156,-101.358002,1667,NA,US,US-ND,Minot,no,KMIB,MIB,MIB
3687,KMIE,medium_airport,Delaware County Johnson Field,40.2422981262207,-85.3958969116211,937,NA,US,US-IN,Muncie,no,KMIE,MIE,MIE
3688,KMIV,medium_airport,Millville Municipal Airport,39.367802,-75.072197,85,NA,US,US-NJ,Millville,no,KMIV,MIV,MIV
3689,KMKC,medium_airport,Charles B. Wheeler Downtown Airport,39.1231994628906,-94.5927963256836,759,NA,US,US-MO,Kansas City,no,KMKC,MKC,MKC
3690,KMKE,large_airport,General Mitchell International Airport,42.9472007751465,-87.896598815918,723,NA,US,US-WI,Milwaukee,yes,KMKE,MKE,MKE
3692,KMKL,medium_airport,McKellar-Sipes Regional Airport,35.599899,-88.915604,434,NA,US,US-TN,Jackson,yes,KMKL,MKL,MKL
3693,KMLB,medium_airport,Melbourne International Airport,28.1028003692627,-80.6453018188477,33,NA,US,US-FL,Melbourne,yes,KMLB,MLB,MLB
3694,KMLC,medium_airport,Mc Alester Regional Airport,34.882401,-95.783501,770,NA,US,US-OK,Mc Alester,no,KMLC,MLC,MLC
3695,KMLI,large_airport,Quad City International Airport,41.4485015869141,-90.5074996948242,590,NA,US,US-IL,Moline,yes,KMLI,MLI,MLI
3696,KMLS,medium_airport,Frank Wiley Field,46.4280014038086,-105.886001586914,2630,NA,US,US-MT,Miles City,yes,KMLS,MLS,MLS
3697,KMLU,large_airport,Monroe Regional Airport,32.5108985900879,-92.0376968383789,79,NA,US,US-LA,Monroe,yes,KMLU,MLU,MLU
20532,KMMT,medium_airport,Mc Entire Joint National Guard Base,33.92079926,-80.80130005,254,NA,US,US-SC,Eastover,no,KMMT,MMT,MMT
3698,KMMU,medium_airport,Morristown Municipal Airport,40.7994003295898,-74.4149017333984,187,NA,US,US-NJ,Morristown,no,KMMU,MMU,MMU
3699,KMMV,medium_airport,Mc Minnville Municipal Airport,45.19440079,-123.1360016,163,NA,US,US-OR,Mc Minnville,no,KMMV,,MMV
3700,KMOB,large_airport,Mobile Regional Airport,30.691200256348,-88.242797851562,219,NA,US,US-AL,Mobile,yes,KMOB,MOB,MOB
3701,KMOD,medium_airport,Modesto City Co-Harry Sham Field,37.62580109,-120.9540024,97,NA,US,US-CA,Modesto,yes,KMOD,MOD,MOD
3702,KMOT,medium_airport,Minot International Airport,48.2593994140625,-101.279998779297,1716,NA,US,US-ND,Minot,yes,KMOT,MOT,MOT
20551,KMPV,medium_airport,Edward F Knapp State Airport,44.20349884,-72.56230164,1166,NA,US,US-VT,Barre/Montpelier,no,KMPV,MPV,MPV
3703,KMQY,medium_airport,Smyrna Airport,36.0089988708,-86.5201034546,543,NA,US,US-TN,Smyrna,no,KMQY,MQY,MQY
3704,KMRB,medium_airport,Eastern WV Regional Airport/Shepherd Field,39.40190125,-77.98459625,565,NA,US,US-WV,Martinsburg,no,KMRB,MRB,MRB
3705,KMRY,medium_airport,Monterey Peninsula Airport,36.5870018005371,-121.843002319336,257,NA,US,US-CA,Monterey,yes,KMRY,MRY,MRY
3706,KMSL,medium_airport,Northwest Alabama Regional Airport,34.74530029,-87.61019897,551,NA,US,US-AL,Muscle Shoals,yes,KMSL,MSL,MSL
3707,KMSN,large_airport,Dane County Regional Truax Field,43.1399002075195,-89.3375015258789,887,NA,US,US-WI,Madison,yes,KMSN,MSN,MSN
3708,KMSO,medium_airport,Missoula International Airport,46.91630173,-114.0910034,3206,NA,US,US-MT,Missoula,yes,KMSO,MSO,MSO
3709,KMSP,large_airport,Minneapolis-St Paul International/Wold-Chamberlain Airport,44.882,-93.221802,841,NA,US,US-MN,Minneapolis,yes,KMSP,MSP,MSP
3710,KMSS,medium_airport,Massena International Richards Field,44.9357986450195,-74.8455963134766,215,NA,US,US-NY,Massena,yes,KMSS,MSS,MSS
3711,KMSY,large_airport,Louis Armstrong New Orleans International Airport,29.9934005737305,-90.2580032348633,4,NA,US,US-LA,New Orleans,yes,KMSY,MSY,MSY
3712,KMTC,medium_airport,Selfridge Air National Guard Base Airport,42.613463,-82.836919,580,NA,US,US-MI,Mount Clemens,no,KMTC,MTC,MTC
20564,KMTH,medium_airport,The Florida Keys Marathon Airport,24.726101,-81.051399,5,NA,US,US-FL,Marathon,no,KMTH,MTH,MTH
20565,KMTJ,medium_airport,Montrose Regional Airport,38.5097999573,-107.893997192,5759,NA,US,US-CO,Montrose,no,KMTJ,MTJ,MTJ
3713,KMTN,medium_airport,Martin State Airport,39.325699,-76.413803,21,NA,US,US-MD,Baltimore,no,KMTN,MTN,MTN
3714,KMUI,medium_airport,Muir Army Air Field (Fort Indiantown Gap) Airport,40.434799,-76.569397,488,NA,US,US-PA,Fort Indiantown Gap(Annville),no,KMUI,MUI,MUI
3715,KMUO,large_airport,Mountain Home Air Force Base,43.043598,-115.872002,2996,NA,US,US-ID,Mountain Home,no,KMUO,MUO,MUO
20581,KMWH,medium_airport,Grant County International Airport,47.20769882,-119.3199997,1189,NA,US,US-WA,Moses Lake,no,KMWH,MWH,MWH
3716,KMXF,medium_airport,Maxwell Air Force Base,32.3829,-86.365799,171,NA,US,US-AL,Montgomery,no,KMXF,MXF,MXF
20591,KMYL,medium_airport,McCall Municipal Airport,44.88970184,-116.1009979,5024,NA,US,US-ID,McCall,no,KMYL,MYL,MYL
3717,KMYR,medium_airport,Myrtle Beach International Airport,33.6796989441,-78.9282989502,25,NA,US,US-SC,Myrtle Beach,yes,KMYR,MYR,MYR
3718,KMYV,medium_airport,Yuba County Airport,39.09780121,-121.5699997,64,NA,US,US-CA,Marysville,no,KMYV,MYV,MYV
3719,KNBC,medium_airport,Beaufort MCAS - Merritt Field,32.4774017334,-80.723197937,37,NA,US,US-SC,Beaufort,no,KNBC,,NBC
3720,KNBG,medium_airport,New Orleans NAS JRB/Alvin Callender Field,29.82530022,-90.03500366,2,NA,US,US-LA,New Orleans,no,KNBG,NBG,NBG
3721,KNCA,medium_airport,New River MCAS /H/ /Mccutcheon Fld/ Airport,34.70840073,-77.43969727,26,NA,US,US-NC,Jacksonville,no,KNCA,,NCA
20634,KNDZ,medium_airport,Whiting Field Naval Air Station South Airport,30.7043991088867,-87.0230026245117,177,NA,US,US-FL,Milton,no,KNDZ,,NDZ
3722,KNEL,medium_airport,Lakehurst Maxfield Field Airport,40.03329849,-74.353302,101,NA,US,US-NJ,Lakehurst,no,KNEL,NEL,NEL
3723,KNEW,medium_airport,Lakefront Airport,30.042400360107,-90.028297424316,8,NA,US,US-LA,New Orleans,no,KNEW,NEW,NEW
3724,KNFG,medium_airport,Camp Pendleton MCAS (Munn Field) Airport,33.30130005,-117.3550034,78,NA,US,US-CA,Oceanside,no,KNFG,,NFG
3725,KNFL,medium_airport,Fallon Naval Air Station,39.41659927,-118.7009964,3934,NA,US,US-NV,Fallon,no,KNFL,NFL,NFL
20639,KNFW,medium_airport,NAS Fort Worth JRB/Carswell Field,32.76919937,-97.4414978,650,NA,US,US-TX,Fort Worth,no,KNFW,FWH,NFW
3726,KNGP,medium_airport,Corpus Christi Naval Air Station/Truax Field,27.69260025,-97.29109955,18,NA,US,US-TX,Corpus Christi,no,KNGP,,NGP
3727,KNGU,medium_airport,Norfolk Naval Station (Chambers Field),36.937599,-76.289299,17,NA,US,US-VA,Norfolk,no,KNGU,NGU,NGU
3728,KNHK,medium_airport,Patuxent River Naval Air Station (Trapnell Field),38.285999,-76.411797,39,NA,US,US-MD,Patuxent River,no,KNHK,NHK,NHK
3729,KNHZ,medium_airport,Brunswick Executive Airport,43.89220047,-69.93859863,72,NA,US,US-ME,Brunswick,no,KBXM,NHZ,BXM
20643,KNID,medium_airport,China Lake Naws (Armitage Field) Airport,35.6853981,-117.6920013,2283,NA,US,US-CA,China Lake,no,KNID,,NID
3730,KNIP,medium_airport,Jacksonville Naval Air Station (Towers Field),30.2358,-81.680603,21,NA,US,US-FL,Jacksonville,no,KNIP,NIP,NIP
3731,KNJK,medium_airport,El Centro NAF Airport (Vraciu Field),32.829201,-115.671996,-42,NA,US,US-CA,El Centro,no,KNJK,NJK,NJK
3732,KNKT,medium_airport,Cherry Point MCAS /Cunningham Field/,34.90090179,-76.88069916,29,NA,US,US-NC,Cherry Point,no,KNKT,,NKT
3733,KNKX,medium_airport,Miramar Marine Corps Air Station - Mitscher Field,32.86840057,-117.1429977,477,NA,US,US-CA,San Diego,no,KNKX,NKX,NKX
20647,KNLC,medium_airport,Lemoore Naval Air Station (Reeves Field) Airport,36.33300018,-119.9520035,232,NA,US,US-CA,Lemoore,no,KNLC,NLC,NLC
3734,KNMM,medium_airport,Meridian Naval Air Station,32.55210114,-88.55560303,316,NA,US,US-MS,Meridian,no,KNMM,,NMM
3735,KNPA,medium_airport,Pensacola Naval Air Station/Forrest Sherman Field,30.35269928,-87.31860352,28,NA,US,US-FL,Pensacola,no,KNPA,NPA,NPA
3736,KNQA,medium_airport,Millington-Memphis Airport,35.356701,-89.8703,320,NA,US,US-TN,Millington,no,KNQA,NQA,NQA
3737,KNQI,medium_airport,Kingsville Naval Air Station,27.5072002411,-97.8097000122,50,NA,US,US-TX,Kingsville,no,KNQI,NQI,NQI
3738,KNQX,medium_airport,Naval Air Station Key West/Boca Chica Field,24.57579994,-81.68890381,6,NA,US,US-FL,Key West,no,KNQX,NQX,NQX
20652,KNRB,medium_airport,Naval Station Mayport (Admiral David L. Mcdonald Field),30.39109993,-81.42469788,15,NA,US,US-FL,Mayport,no,KNRB,NRB,NRB
20656,KNSE,medium_airport,Whiting Field Naval Air Station - North,30.7241993,-87.02189636,199,NA,US,US-FL,Milton,no,KNSE,NSE,NSE
3739,KNTD,medium_airport,Point Mugu Naval Air Station (Naval Base Ventura Co),34.120300293,-119.121002197,13,NA,US,US-CA,Point Mugu,no,KNTD,NTD,NTD
3740,KNTU,medium_airport,Oceana Naval Air Station,36.820702,-76.033501,23,NA,US,US-VA,Virginia Beach,no,KNTU,NTU,NTU
3741,KNUQ,medium_airport,Moffett Federal Airfield,37.4161,-122.049004,32,NA,US,US-CA,Mountain View,no,KNUQ,NUQ,NUQ
20661,KNUW,medium_airport,Whidbey Island Naval Air Station (Ault Field),48.351799,-122.655998,47,NA,US,US-WA,Oak Harbor,no,KNUW,NUW,NUW
20666,KNXP,medium_airport,Twentynine Palms (Self) Airport,34.2961998,-116.1620026,2051,NA,US,US-CA,Twentynine Palms,no,KNXP,,NXP
20669,KNYG,medium_airport,Quantico MCAF /Turner field,38.50170135,-77.30529785,10,NA,US,US-VA,Quantico,no,KNYG,,NYG
3961,KNYL,medium_airport,Yuma MCAS/Yuma International Airport,32.65660095,-114.6060028,213,NA,US,US-AZ,Yuma,yes,KNYL,YUM,NYL
3743,KNZY,medium_airport,North Island Naval Air Station-Halsey Field,32.69919968,-117.2149963,26,NA,US,US-CA,San Diego,no,KNZY,NZY,NZY
20709,KOAJ,medium_airport,Albert J Ellis Airport,34.8292007446,-77.6120986938,94,NA,US,US-NC,Jacksonville,no,KOAJ,OAJ,OAJ
3744,KOAK,large_airport,Metropolitan Oakland International Airport,37.721298,-122.221001,9,NA,US,US-CA,Oakland,yes,KOAK,OAK,OAK
3745,KOFF,medium_airport,Offutt Air Force Base,41.118301391602,-95.912498474121,1052,NA,US,US-NE,Omaha,no,KOFF,OFF,OFF
20722,KOFK,medium_airport,Karl Stefan Memorial Airport,41.985500335693,-97.435096740723,1573,NA,US,US-NE,Norfolk,no,KOFK,OFK,OFK
20725,KOGB,medium_airport,Orangeburg Municipal Airport,33.456798553467,-80.859497070312,195,NA,US,US-SC,Orangeburg,no,KOGB,OGB,OGB
3746,KOGD,medium_airport,Ogden Hinckley Airport,41.195899963379,-112.0120010376,4473,NA,US,US-UT,Ogden,yes,KOGD,OGD,OGD
3747,KOKC,large_airport,Will Rogers World Airport,35.3931007385254,-97.600700378418,1295,NA,US,US-OK,Oklahoma City,yes,KOKC,OKC,OKC
20739,KOLF,medium_airport,L M Clayton Airport,48.0945014954,-105.574996948,1986,NA,US,US-MT,Wolf Point,no,KOLF,OLF,OLF
3749,KOLM,medium_airport,Olympia Regional Airport,46.9693985,-122.9029999,209,NA,US,US-WA,Olympia,no,KOLM,OLM,OLM
20741,KOLS,medium_airport,Nogales International Airport,31.4177,-110.848,3955,NA,US,US-AZ,Nogales,no,KOLS,OLS,OLS
3750,KOLU,medium_airport,Columbus Municipal Airport,41.44800186,-97.34259796,1447,NA,US,US-NE,Columbus,no,KOLU,,OLU
3751,KOMA,large_airport,Eppley Airfield,41.3032,-95.894096,984,NA,US,US-NE,Omaha,yes,KOMA,OMA,OMA
20752,KONP,medium_airport,Newport Municipal Airport,44.580399,-124.057999,160,NA,US,US-OR,Newport,no,KONP,ONP,ONP
3752,KONT,large_airport,Ontario International Airport,34.0559997558594,-117.600997924805,944,NA,US,US-CA,Ontario,yes,KONT,ONT,ONT
20757,KOPF,medium_airport,Opa-locka Executive Airport,25.907,-80.278397,8,NA,US,US-FL,Miami,no,KOPF,OPF,OPF
3753,KOQU,medium_airport,Quonset State Airport,41.597099304199,-71.412101745605,18,NA,US,US-RI,North Kingstown,no,KOQU,NCO,OQU
3754,KORD,large_airport,Chicago O'Hare International Airport,41.9786,-87.9048,672,NA,US,US-IL,Chicago,yes,KORD,ORD,ORD
3755,KORF,large_airport,Norfolk International Airport,36.8945999145508,-76.2012023925781,26,NA,US,US-VA,Norfolk,yes,KORF,ORF,ORF
3756,KORH,medium_airport,Worcester Regional Airport,42.2672996520996,-71.8757019042969,1009,NA,US,US-MA,Worcester,no,KORH,ORH,ORH
3757,KOSH,medium_airport,Wittman Regional Airport,43.9844017028809,-88.556999206543,808,NA,US,US-WI,Oshkosh,no,KOSH,OSH,OSH
3758,KOSU,medium_airport,The Ohio State University Airport - Don Scott Field,40.0798,-83.072998,905,NA,US,US-OH,Columbus,no,KOSU,OSU,OSU
3759,KOTH,medium_airport,Southwest Oregon Regional Airport,43.4170989990234,-124.246002197266,17,NA,US,US-OR,North Bend,yes,KOTH,OTH,OTH
3760,KOTM,medium_airport,Ottumwa Regional Airport,41.10660172,-92.44789886,845,NA,US,US-IA,Ottumwa,no,KOTM,OTM,OTM
3761,KOWB,medium_airport,Owensboro Daviess County Airport,37.74010086,-87.16680145,407,NA,US,US-KY,Owensboro,yes,KOWB,OWB,OWB
20777,KOWD,medium_airport,Norwood Memorial Airport,42.1904983521,-71.1728973389,49,NA,US,US-MA,Norwood,no,KOWD,OWD,OWD
20785,KOXR,medium_airport,Oxnard Airport,34.200801849365,-119.20700073242,45,NA,US,US-CA,Oxnard,no,KOXR,OXR,OXR
3762,KOZR,medium_airport,Cairns AAF (Fort Rucker) Air Field,31.27569962,-85.71340179,301,NA,US,US-AL,Fort Rucker/Ozark,no,KOZR,OZR,OZR
3763,KPAE,medium_airport,Snohomish County (Paine Field) Airport,47.90629959,-122.2819977,606,NA,US,US-WA,Everett,no,KPAE,PAE,PAE
3764,KPAH,medium_airport,Barkley Regional Airport,37.0607986450195,-88.7738037109375,410,NA,US,US-KY,Paducah,yes,KPAH,PAH,PAH
3765,KPAM,large_airport,Tyndall Air Force Base,30.0695991516,-85.5754013062,17,NA,US,US-FL,Panama City,no,KPAM,PAM,PAM
20807,KPBF,medium_airport,"Pine Bluff Regional Airport, Grider Field",34.1731,-91.9356,206,NA,US,US-AR,Pine Bluff,no,KPBF,PBF,PBF
20808,KPBG,medium_airport,Plattsburgh International Airport,44.6509017944336,-73.4681015014648,234,NA,US,US-NY,Plattsburgh,yes,KPBG,PBG,PBG
3766,KPBI,large_airport,Palm Beach International Airport,26.6832008361816,-80.0955963134766,19,NA,US,US-FL,West Palm Beach,yes,KPBI,PBI,PBI
3767,KPDK,medium_airport,DeKalb Peachtree Airport,33.8755989075,-84.3020019531,1003,NA,US,US-GA,Atlanta,no,KPDK,PDK,PDK
20815,KPDT,medium_airport,Eastern Oregon Regional At Pendleton Airport,45.695098877,-118.841003418,1497,NA,US,US-OR,Pendleton,no,KPDT,PDT,PDT
3768,KPDX,large_airport,Portland International Airport,45.58869934,-122.5979996,31,NA,US,US-OR,Portland,yes,KPDX,PDX,PDX
20821,KPGA,medium_airport,Page Municipal Airport,36.92610168,-111.447998,4316,NA,US,US-AZ,Page,no,KPGA,PGA,PGA
20824,KPGV,medium_airport,Pitt Greenville Airport,35.6352005,-77.38529968,26,NA,US,US-NC,Greenville,no,KPGV,PGV,PGV
3770,KPHF,large_airport,Newport News Williamsburg International Airport,37.13190079,-76.49299622,42,NA,US,US-VA,Newport News,yes,KPHF,PHF,PHF
3771,KPHL,large_airport,Philadelphia International Airport,39.871898651123,-75.241096496582,36,NA,US,US-PA,Philadelphia,yes,KPHL,PHL,PHL
3772,KPHX,large_airport,Phoenix Sky Harbor International Airport,33.4342994689941,-112.012001037598,1135,NA,US,US-AZ,Phoenix,yes,KPHX,PHX,PHX
3773,KPIA,large_airport,General Wayne A. Downing Peoria International Airport,40.6641998291,-89.6932983398,660,NA,US,US-IL,Peoria,yes,KPIA,PIA,PIA
3774,KPIB,medium_airport,Hattiesburg Laurel Regional Airport,31.4671001434326,-89.3370971679687,298,NA,US,US-MS,Hattiesburg/Laurel,yes,KPIB,PIB,PIB
3775,KPIE,medium_airport,St Petersburg Clearwater International Airport,27.91020012,-82.68740082,11,NA,US,US-FL,St Petersburg-Clearwater,yes,KPIE,PIE,PIE
3776,KPIH,medium_airport,Pocatello Regional Airport,42.9098014831543,-112.596000671387,4452,NA,US,US-ID,Pocatello,yes,KPIH,PIH,PIH
3777,KPIR,medium_airport,Pierre Regional Airport,44.38270187,-100.2860031,1744,NA,US,US-SD,Pierre,yes,KPIR,PIR,PIR
3778,KPIT,large_airport,Pittsburgh International Airport,40.49150085,-80.23290253,1203,NA,US,US-PA,Pittsburgh,yes,KPIT,PIT,PIT
3779,KPKB,medium_airport,Mid Ohio Valley Regional Airport,39.345100402832,-81.4392013549805,858,NA,US,US-WV,Parkersburg,yes,KPKB,PKB,PKB
3781,KPLN,medium_airport,Pellston Regional Airport of Emmet County Airport,45.57089996,-84.79669952,721,NA,US,US-MI,Pellston,yes,KPLN,PLN,PLN
3782,KPMD,medium_airport,Palmdale Regional/USAF Plant 42 Airport,34.62939835,-118.0849991,2543,NA,US,US-CA,Palmdale,yes,KPMD,PMD,PMD
20848,KPNA,medium_airport,Ralph Wenz Field,42.79550171,-109.8069992,7102,NA,US,US-WY,Pinedale,no,KPNA,PWY,PNA
20849,KPNC,medium_airport,Ponca City Regional Airport,36.73199844,-97.09980011,1008,NA,US,US-OK,Ponca City,no,KPNC,PNC,PNC
20850,KPNE,medium_airport,Northeast Philadelphia Airport,40.081902,-75.010597,120,NA,US,US-PA,Philadelphia,yes,KPNE,PNE,PNE
3783,KPNS,medium_airport,Pensacola Regional Airport,30.473400115967,-87.186599731445,121,NA,US,US-FL,Pensacola,yes,KPNS,PNS,PNS
3784,KPOB,medium_airport,Pope Field,35.1708984375,-79.014503479004,217,NA,US,US-NC,Fayetteville,no,KPOB,POB,POB
3785,KPOE,medium_airport,Polk Army Air Field,31.0447998,-93.1917038,330,NA,US,US-LA,Fort Polk,no,KPOE,POE,POE
3786,KPOU,medium_airport,Dutchess County Airport,41.6265983581543,-73.8842010498047,165,NA,US,US-NY,Poughkeepsie,no,KPOU,POU,POU
3787,KPQI,medium_airport,Northern Maine Regional Airport at Presque Isle,46.68899918,-68.0447998,534,NA,US,US-ME,Presque Isle,yes,KPQI,PQI,PQI
3788,KPRB,medium_airport,Paso Robles Municipal Airport,35.67290115,-120.6269989,840,NA,US,US-CA,Paso Robles,no,KPRB,PRB,PRB
3789,KPRC,medium_airport,Ernest A. Love Field,34.65449905,-112.4199982,5045,NA,US,US-AZ,Prescott,yes,KPRC,PRC,PRC
3790,KPRX,medium_airport,Cox Field,33.636600494385,-95.450798034668,547,NA,US,US-TX,Paris,no,KPRX,PRX,PRX
20870,KPSC,medium_airport,Tri Cities Airport,46.2647018432617,-119.119003295898,410,NA,US,US-WA,Pasco,yes,KPSC,PSC,PSC
3791,KPSM,medium_airport,Portsmouth International at Pease Airport,43.0778999329,-70.8233032227,100,NA,US,US-NH,Portsmouth,yes,KPSM,PSM,PSM
3792,KPSP,medium_airport,Palm Springs International Airport,33.8297004699707,-116.50700378418,477,NA,US,US-CA,Palm Springs,yes,KPSP,PSP,PSP
3793,KPTK,medium_airport,Oakland County International Airport,42.665500640869,-83.420097351074,980,NA,US,US-MI,Pontiac,no,KPTK,PTK,PTK
20883,KPUW,medium_airport,Pullman Moscow Regional Airport,46.7439,-117.110001,2556,NA,US,US-WA,Pullman/Moscow,yes,KPUW,PUW,PUW
3795,KPVD,large_airport,Theodore Francis Green State Airport,41.732601,-71.420403,55,NA,US,US-RI,Providence,yes,KPVD,PVD,PVD
20890,KPVU,medium_airport,Provo Municipal Airport,40.219200134277,-111.72299957275,4497,NA,US,US-UT,Provo,yes,KPVU,PVU,PVU
20896,KPWK,medium_airport,Chicago Executive Airport,42.114222,-87.901494,647,NA,US,US-IL,Chicago/Prospect Heights/Wheeling,no,KPWK,PWK,PWK
3796,KPWM,large_airport,Portland International Jetport Airport,43.64619827,-70.30930328,76,NA,US,US-ME,Portland,yes,KPWM,PWM,PWM
3797,KPWT,medium_airport,Bremerton National Airport,47.490200042725,-122.76499938965,444,NA,US,US-WA,Bremerton,no,KPWT,PWT,PWT
3837,KRAL,medium_airport,Riverside Municipal Airport,33.95190048,-117.4449997,819,NA,US,US-CA,Riverside,no,KRAL,RAL,RAL
3838,KRAP,medium_airport,Rapid City Regional Airport,44.0452995300293,-103.056999206543,3204,NA,US,US-SD,Rapid City,yes,KRAP,RAP,RAP
3839,KRBL,medium_airport,Red Bluff Municipal Airport,40.1506996155,-122.251998901,352,NA,US,US-CA,Red Bluff,no,KRBL,RBL,RBL
3840,KRCA,medium_airport,Ellsworth Air Force Base,44.14500046,-103.1039963,3276,NA,US,US-SD,Rapid City,no,KRCA,RCA,RCA
3841,KRDD,medium_airport,Redding Municipal Airport,40.50899887,-122.2929993,505,NA,US,US-CA,Redding,yes,KRDD,RDD,RDD
3842,KRDG,medium_airport,Reading Regional Carl A Spaatz Field,40.3785018920898,-75.965202331543,344,NA,US,US-PA,Reading,yes,KRDG,RDG,RDG
3843,KRDM,medium_airport,Roberts Field,44.2541008,-121.1500015,3080,NA,US,US-OR,Redmond,yes,KRDM,RDM,RDM
20922,KRDR,medium_airport,Grand Forks Air Force Base,47.961101532,-97.4011993408,913,NA,US,US-ND,Grand Forks,no,KRDR,RDR,RDR
3844,KRDU,large_airport,Raleigh Durham International Airport,35.8776016235352,-78.7874984741211,435,NA,US,US-NC,Raleigh/Durham,yes,KRDU,RDU,RDU
3845,KRFD,large_airport,Chicago Rockford International Airport,42.1954002380371,-89.0971984863281,742,NA,US,US-IL,Chicago/Rockford,yes,KRFD,RFD,RFD
3846,KRHI,medium_airport,Rhinelander Oneida County Airport,45.6311988830566,-89.4674987792969,1624,NA,US,US-WI,Rhinelander,yes,KRHI,RHI,RHI
3847,KRIC,large_airport,Richmond International Airport,37.505199432373,-77.3197021484375,167,NA,US,US-VA,Richmond,yes,KRIC,RIC,RIC
20931,KRIL,medium_airport,Garfield County Regional Airport,39.526299,-107.726997,5548,NA,US,US-CO,Rifle,no,KRIL,RIL,RIL
3849,KRIV,medium_airport,March ARB Airport,33.880699,-117.259003,1536,NA,US,US-CA,Riverside,no,KRIV,RIV,RIV
20933,KRIW,medium_airport,Riverton Regional Airport,43.064201355,-108.459999084,5525,NA,US,US-WY,Riverton,no,KRIW,RIW,RIW
3850,KRKS,medium_airport,Southwest Wyoming Regional Airport,41.5942,-109.065001,6764,NA,US,US-WY,Rock Springs,yes,KRKS,RKS,RKS
20940,KRME,medium_airport,Griffiss International Airport,43.23379898,-75.40699768,504,NA,US,US-NY,Rome,no,KRME,RME,RME
3851,KRMG,medium_airport,Richard B Russell Airport,34.3506011963,-85.1579971313,644,NA,US,US-GA,Rome,no,KRMG,RMG,RMG
3852,KRND,large_airport,Randolph Air Force Base,29.52969933,-98.27890015,761,NA,US,US-TX,Universal City,no,KRND,RND,RND
20944,KRNH,medium_airport,New Richmond Regional Airport,45.14830017,-92.5381012,998,NA,US,US-WI,New Richmond,no,KRNH,,RNH
3853,KRNO,large_airport,Reno Tahoe International Airport,39.4990997314453,-119.767997741699,4415,NA,US,US-NV,Reno,yes,KRNO,RNO,RNO
3854,KROA,large_airport,Roanokeâ€“Blacksburg Regional Airport,37.3255,-79.975403,1175,NA,US,US-VA,Roanoke,yes,KROA,ROA,ROA
3855,KROC,large_airport,Greater Rochester International Airport,43.1189002990723,-77.6724014282227,559,NA,US,US-NY,Rochester,yes,KROC,ROC,ROC
3856,KROW,medium_airport,Roswell International Air Center Airport,33.3016014099121,-104.53099822998,3671,NA,US,US-NM,Roswell,yes,KROW,ROW,ROW
20962,KRSL,medium_airport,Russell Municipal Airport,38.872100830078,-98.811798095703,1862,NA,US,US-KS,Russell,no,KRSL,RSL,RSL
3857,KRST,large_airport,Rochester International Airport,43.9082984924316,-92.5,1317,NA,US,US-MN,Rochester,yes,KRST,RST,RST
3858,KRSW,large_airport,Southwest Florida International Airport,26.5361995697021,-81.7552032470703,30,NA,US,US-FL,Fort Myers,yes,KRSW,RSW,RSW
3859,KRUT,medium_airport,Rutland - Southern Vermont Regional Airport,43.52939987,-72.94960022,787,NA,US,US-VT,Rutland,yes,KRUT,RUT,RUT
20972,KRVS,medium_airport,Richard Lloyd Jones Jr Airport,36.039600372314,-95.984596252441,638,NA,US,US-OK,Tulsa,no,KRVS,RVS,RVS
20973,KRWF,medium_airport,Redwood Falls Municipal Airport,44.54719925,-95.08229828,1024,NA,US,US-MN,Redwood Falls,no,KRWF,RWF,RWF
3860,KRWI,medium_airport,Rocky Mount Wilson Regional Airport,35.8563003540039,-77.8918991088867,159,NA,US,US-NC,Rocky Mount,no,KRWI,RWI,RWI
20974,KRWL,medium_airport,Rawlins Municipal Airport/Harvey Field,41.80559921,-107.1999969,6813,NA,US,US-WY,Rawlins,no,KRWL,RWL,RWL
20981,KRYY,medium_airport,Cobb County-Mc Collum Field,34.01319885,-84.59860229,1040,NA,US,US-GA,Atlanta,no,KRYY,,RYY
3861,KSAC,medium_airport,Sacramento Executive Airport,38.5125007629,-121.492996216,24,NA,US,US-CA,Sacramento,no,KSAC,SAC,SAC
21033,KSAF,medium_airport,Santa Fe Municipal Airport,35.617099762,-106.088996887,6348,NA,US,US-NM,Santa Fe,no,KSAF,SAF,SAF
3862,KSAN,large_airport,San Diego International Airport,32.7336006165,-117.190002441,17,NA,US,US-CA,San Diego,yes,KSAN,SAN,SAN
3863,KSAT,large_airport,San Antonio International Airport,29.5337009429932,-98.4698028564453,809,NA,US,US-TX,San Antonio,yes,KSAT,SAT,SAT
3864,KSAV,large_airport,Savannah Hilton Head International Airport,32.12760162,-81.20210266,50,NA,US,US-GA,Savannah,yes,KSAV,SAV,SAV
3865,KSAW,medium_airport,Sawyer International Airport,46.3535995483,-87.395401001,1221,NA,US,US-MI,Marquette,no,KSAW,MQT,SAW
3866,KSBA,medium_airport,Santa Barbara Municipal Airport,34.42620087,-119.8399963,13,NA,US,US-CA,Santa Barbara,yes,KSBA,SBA,SBA
3867,KSBD,medium_airport,San Bernardino International Airport,34.0954017639,-117.23500061,1159,NA,US,US-CA,San Bernardino,no,KSBD,SBD,SBD
3868,KSBN,large_airport,South Bend Regional Airport,41.7086982727051,-86.3172988891602,799,NA,US,US-IN,South Bend,yes,KSBN,SBN,SBN
3869,KSBP,medium_airport,San Luis County Regional Airport,35.2368011475,-120.641998291,212,NA,US,US-CA,San Luis Obispo,yes,KSBP,SBP,SBP
3870,KSBY,medium_airport,Salisbury Ocean City Wicomico Regional Airport,38.3404998779297,-75.5102996826172,52,NA,US,US-MD,Salisbury,yes,KSBY,SBY,SBY
3871,KSCH,medium_airport,Schenectady County Airport,42.852500915527,-73.928901672363,378,NA,US,US-NY,Schenectady,no,KSCH,SCH,SCH
3872,KSCK,medium_airport,Stockton Metropolitan Airport,37.894199371338,-121.2379989624,33,NA,US,US-CA,Stockton,no,KSCK,SCK,SCK
3873,KSDF,large_airport,Louisville International Standiford Field,38.1744,-85.736,501,NA,US,US-KY,Louisville,yes,KSDF,SDF,SDF
3874,KSDM,medium_airport,Brown Field Municipal Airport,32.572299957275,-116.98000335693,526,NA,US,US-CA,San Diego,no,KSDM,SDM,SDM
21046,KSDY,medium_airport,Sidney - Richland Regional Airport,47.706902,-104.193001,1985,NA,US,US-MT,Sidney,no,KSDY,SDY,SDY
3875,KSEA,large_airport,Seattle Tacoma International Airport,47.449001,-122.308998,433,NA,US,US-WA,Seattle,yes,KSEA,SEA,SEA
3876,KSFB,large_airport,Orlando Sanford International Airport,28.7775993347168,-81.2375030517578,55,NA,US,US-FL,Orlando,yes,KSFB,SFB,SFB
3877,KSFF,medium_airport,Felts Field,47.682800292969,-117.32299804688,1953,NA,US,US-WA,Spokane,no,KSFF,SFF,SFF
3878,KSFO,large_airport,San Francisco International Airport,37.6189994812012,-122.375,13,NA,US,US-CA,San Francisco,yes,KSFO,SFO,SFO
3879,KSGF,large_airport,Springfield Branson National Airport,37.24570084,-93.38860321,1268,NA,US,US-MO,Springfield,yes,KSGF,SGF,SGF
3880,KSGH,medium_airport,Springfield-Beckley Municipal Airport,39.840301513672,-83.840202331543,1051,NA,US,US-OH,Springfield,no,KSGH,SGH,SGH
21061,KSGJ,medium_airport,Northeast Florida Regional Airport,29.9592,-81.339798,10,NA,US,US-FL,St Augustine,yes,KSGJ,UST,SGJ
21062,KSGR,medium_airport,Sugar Land Regional Airport,29.622299194336,-95.65650177002,82,NA,US,US-TX,Houston,no,KSGR,SGR,SGR
21065,KSGU,medium_airport,St George Municipal Airport,37.036389,-113.510306,2941,NA,US,US-UT,St George,yes,KSGU,SGU,SGU
3881,KSHR,medium_airport,Sheridan County Airport,44.7691993713379,-106.980003356934,4021,NA,US,US-WY,Sheridan,yes,KSHR,SHR,SHR
3882,KSHV,medium_airport,Shreveport Regional Airport,32.446602,-93.8256,258,NA,US,US-LA,Shreveport,yes,KSHV,SHV,SHV
3883,KSJC,large_airport,Norman Y. Mineta San Jose International Airport,37.362598,-121.929001,62,NA,US,US-CA,San Jose,yes,KSJC,SJC,SJC
3884,KSJT,medium_airport,San Angelo Regional Mathis Field,31.3577003479004,-100.496002197266,1919,NA,US,US-TX,San Angelo,yes,KSJT,SJT,SJT
3885,KSKA,large_airport,Fairchild Air Force Base,47.6151008606,-117.65599823,2461,NA,US,US-WA,Spokane,no,KSKA,SKA,SKA
3886,KSKF,medium_airport,Lackland Air Force Base,29.38419914,-98.58110046,691,NA,US,US-TX,San Antonio,no,KSKF,SKF,SKF
3887,KSLC,large_airport,Salt Lake City International Airport,40.7883987426758,-111.977996826172,4227,NA,US,US-UT,Salt Lake City,yes,KSLC,SLC,SLC
3888,KSLE,medium_airport,Salem Municipal Airport/McNary Field,44.90950012,-123.0029984,214,NA,US,US-OR,Salem,no,KSLE,SLE,SLE
3889,KSLI,medium_airport,Los Alamitos Army Air Field,33.79000092,-118.052002,32,NA,US,US-CA,Los Alamitos,no,KSLI,,SLI
3890,KSLK,medium_airport,Adirondack Regional Airport,44.3852996826172,-74.2061996459961,1663,NA,US,US-NY,Saranac Lake,yes,KSLK,SLK,SLK
3891,KSLN,medium_airport,Salina Municipal Airport,38.7910003662109,-97.6521987915039,1288,NA,US,US-KS,Salina,yes,KSLN,SLN,SLN
21085,KSME,medium_airport,Lake Cumberland Regional Airport,37.0533981323,-84.6158981323,927,NA,US,US-KY,Somerset,no,KSME,SME,SME
3892,KSMF,large_airport,Sacramento International Airport,38.6954002380371,-121.591003417969,27,NA,US,US-CA,Sacramento,yes,KSMF,SMF,SMF
21086,KSMN,medium_airport,Lemhi County Airport,45.1237983704,-113.880996704,4043,NA,US,US-ID,Salmon,no,KSMN,SMN,SMN
3893,KSMX,medium_airport,Santa Maria Pub/Capt G Allan Hancock Field,34.89889908,-120.4570007,261,NA,US,US-CA,Santa Maria,yes,KSMX,SMX,SMX
3894,KSNA,large_airport,John Wayne Airport-Orange County Airport,33.67570114,-117.8679962,56,NA,US,US-CA,Santa Ana,yes,KSNA,SNA,SNA
3895,KSNS,medium_airport,Salinas Municipal Airport,36.662799835205,-121.60600280762,85,NA,US,US-CA,Salinas,no,KSNS,SNS,SNS
21094,KSNY,medium_airport,Sidney Municipal-Lloyd W Carr Field,41.10129929,-102.9850006,4313,NA,US,US-NE,Sidney,no,KSNY,SNY,SNY
21095,KSOA,medium_airport,Sonora Municipal Airport,30.585699081421,-100.6490020752,2140,NA,US,US-TX,Sonora,no,KSOA,,SOA
3897,KSPI,large_airport,Abraham Lincoln Capital Airport,39.84410095,-89.67790222,598,NA,US,US-IL,Springfield,yes,KSPI,SPI,SPI
3898,KSPS,large_airport,Sheppard Air Force Base-Wichita Falls Municipal Airport,33.9888,-98.491898,1019,NA,US,US-TX,Wichita Falls,yes,KSPS,SPS,SPS
3899,KSRQ,large_airport,Sarasota Bradenton International Airport,27.3953990936279,-82.5543975830078,30,NA,US,US-FL,Sarasota/Bradenton,yes,KSRQ,SRQ,SRQ
3900,KSRR,medium_airport,Sierra Blanca Regional Airport,33.462799072266,-105.53500366211,6814,NA,US,US-NM,Ruidoso,no,KSRR,RUI,SRR
3901,KSSC,large_airport,Shaw Air Force Base,33.97269821,-80.47059631,241,NA,US,US-SC,Sumter,no,KSSC,SSC,SSC
21109,KSSF,medium_airport,Stinson Municipal Airport,29.336999893188,-98.471099853516,577,NA,US,US-TX,San Antonio,no,KSSF,SSF,SSF
3902,KSSI,medium_airport,Malcolm McKinnon Airport,31.15180016,-81.39129639,19,NA,US,US-GA,Brunswick,no,KSSI,SSI,SSI
3903,KSTC,medium_airport,St Cloud Regional Airport,45.5466003417969,-94.0598983764648,1031,NA,US,US-MN,St Cloud,yes,KSTC,STC,STC
3904,KSTJ,medium_airport,Rosecrans Memorial Airport,39.771900177002,-94.909698486328,826,NA,US,US-MO,St Joseph,no,KSTJ,STJ,STJ
3905,KSTL,large_airport,St Louis Lambert International Airport,38.748697,-90.370003,618,NA,US,US-MO,St Louis,yes,KSTL,STL,STL
3906,KSTP,medium_airport,St Paul Downtown Holman Field,44.9345016479492,-93.0599975585938,705,NA,US,US-MN,St Paul,no,KSTP,STP,STP
21114,KSTS,medium_airport,Charles M. Schulz Sonoma County Airport,38.50899887,-122.8130035,128,NA,US,US-CA,Santa Rosa,yes,KSTS,STS,STS
21118,KSUN,medium_airport,Friedman Memorial Airport,43.50439835,-114.2959976,5318,NA,US,US-ID,Hailey,yes,KSUN,SUN,SUN
3907,KSUS,large_airport,Spirit of St Louis Airport,38.662101745605,-90.652000427246,463,NA,US,US-MO,St Louis,no,KSUS,SUS,SUS
3908,KSUU,large_airport,Travis Air Force Base,38.262699127197,-121.92700195312,62,NA,US,US-CA,Fairfield,no,KSUU,SUU,SUU
3909,KSUX,large_airport,Sioux Gateway Col. Bud Day Field,42.40259933,-96.38439941,1098,NA,US,US-IA,Sioux City,yes,KSUX,SUX,SUX
29695,KSUZ,medium_airport,Saline County Regional Airport,34.59059906,-92.47940063,390,NA,US,US-AR,Benton,no,KSUZ,,SUZ
3910,KSVN,medium_airport,Hunter Army Air Field,32.00999832,-81.14569855,41,NA,US,US-GA,Savannah,no,KSVN,SVN,SVN
3911,KSWF,medium_airport,Stewart International Airport,41.5041007995606,-74.1047973632813,491,NA,US,US-NY,Newburgh,yes,KSWF,SWF,SWF
3912,KSWO,medium_airport,Stillwater Regional Airport,36.161201477051,-97.08570098877,1000,NA,US,US-OK,Stillwater,no,KSWO,SWO,SWO
3913,KSYR,large_airport,Syracuse Hancock International Airport,43.111198425293,-76.1063003540039,421,NA,US,US-NY,Syracuse,yes,KSYR,SYR,SYR
3914,KSZL,large_airport,Whiteman Air Force Base,38.73030090332,-93.547897338867,870,NA,US,US-MO,Knob Noster,no,KSZL,SZL,SZL
3915,KTBN,medium_airport,Waynesville-St. Robert Regional Forney field,37.74160004,-92.14070129,1159,NA,US,US-MO,Fort Leonard Wood,yes,KTBN,TBN,TBN
3916,KTCC,medium_airport,Tucumcari Municipal Airport,35.182800293,-103.602996826,4065,NA,US,US-NM,Tucumcari,no,KTCC,TCC,TCC
3917,KTCL,medium_airport,Tuscaloosa Regional Airport,33.220600128174,-87.611396789551,170,NA,US,US-AL,Tuscaloosa,no,KTCL,TCL,TCL
3918,KTCM,large_airport,McChord Air Force Base,47.1376991272,-122.475997925,322,NA,US,US-WA,Tacoma,no,KTCM,TCM,TCM
3919,KTCS,medium_airport,Truth Or Consequences Municipal Airport,33.2369003296,-107.272003174,4853,NA,US,US-NM,Truth Or Consequences,no,KTCS,TCS,TCS
3920,KTEB,medium_airport,Teterboro Airport,40.8501014709,-74.060798645,9,NA,US,US-NJ,Teterboro,no,KTEB,TEB,TEB
3921,KTIK,large_airport,Tinker Air Force Base,35.414699554443,-97.386596679688,1291,NA,US,US-OK,Oklahoma City,no,KTIK,TIK,TIK
3922,KTIW,medium_airport,Tacoma Narrows Airport,47.26789856,-122.5780029,294,NA,US,US-WA,Tacoma,no,KTIW,TIW,TIW
3923,KTIX,medium_airport,Space Coast Regional Airport,28.514799118042,-80.799201965332,34,NA,US,US-FL,Titusville,no,KTIX,TIX,TIX
3924,KTLH,large_airport,Tallahassee Regional Airport,30.3964996337891,-84.3503036499024,81,NA,US,US-FL,Tallahassee,yes,KTLH,TLH,TLH
21204,KTMB,medium_airport,Kendall-Tamiami Executive Airport,25.6478996277,-80.432800293,8,NA,US,US-FL,Miami,no,KTMB,TMB,TMB
21212,KTOI,medium_airport,Troy Municipal Airport at N Kenneth Campbell Field,31.860399,-86.012101,398,NA,US,US-AL,Troy,no,KTOI,TOI,TOI
3925,KTOL,large_airport,Toledo Express Airport,41.58679962,-83.80780029,683,NA,US,US-OH,Toledo,yes,KTOL,TOL,TOL
21213,KTOP,medium_airport,Philip Billard Municipal Airport,39.068698883057,-95.622497558594,881,NA,US,US-KS,Topeka,no,KTOP,TOP,TOP
3926,KTPA,large_airport,Tampa International Airport,27.9755001068115,-82.533203125,26,NA,US,US-FL,Tampa,yes,KTPA,TPA,TPA
21216,KTPH,medium_airport,Tonopah Airport,38.06019974,-117.086998,5430,NA,US,US-NV,Tonopah,no,KTPH,TPH,TPH
3927,KTPL,medium_airport,Draughon Miller Central Texas Regional Airport,31.1525001525879,-97.4077987670898,682,NA,US,US-TX,Temple,no,KTPL,TPL,TPL
3928,KTRI,large_airport,Tri-Cities Regional TN/VA Airport,36.475201,-82.407401,1519,NA,US,US-TN,Bristol/Johnson/Kingsport,yes,KTRI,TRI,TRI
21220,KTRK,medium_airport,Truckee Tahoe Airport,39.3199996948,-120.13999939,5900,NA,US,US-CA,Truckee,no,KTRK,TKF,TRK
21222,KTRM,medium_airport,Jacqueline Cochran Regional Airport,33.62670135498,-116.16000366211,-115,NA,US,US-CA,Palm Springs,no,KTRM,TRM,TRM
21228,KTTD,medium_airport,Portland Troutdale Airport,45.54940032959,-122.40100097656,39,NA,US,US-OR,Portland,no,KTTD,TTD,TTD
3929,KTTN,medium_airport,Trenton Mercer Airport,40.2766990661621,-74.8134994506836,213,NA,US,US-NJ,Trenton,yes,KTTN,TTN,TTN
21230,KTTS,medium_airport,Nasa Shuttle Landing Facility Airport,28.6149997711182,-80.6945037841797,10,NA,US,US-FL,Titusville,no,KTTS,,TTS
3930,KTUL,large_airport,Tulsa International Airport,36.1983985900879,-95.8880996704102,677,NA,US,US-OK,Tulsa,yes,KTUL,TUL,TUL
3931,KTUP,medium_airport,Tupelo Regional Airport,34.2681007385254,-88.7698974609375,346,NA,US,US-MS,Tupelo,yes,KTUP,TUP,TUP
3932,KTUS,large_airport,Tucson International Airport,32.1161003112793,-110.94100189209,2643,NA,US,US-AZ,Tucson,yes,KTUS,TUS,TUS
3933,KTVC,medium_airport,Cherry Capital Airport,44.7414016723633,-85.5821990966797,624,NA,US,US-MI,Traverse City,yes,KTVC,TVC,TVC
3934,KTVL,medium_airport,Lake Tahoe Airport,38.8939018249512,-119.995002746582,6264,NA,US,US-CA,South Lake Tahoe,no,KTVL,TVL,TVL
3935,KTWF,medium_airport,Joslin Field Magic Valley Regional Airport,42.4818,-114.487999,4154,NA,US,US-ID,Twin Falls,yes,KTWF,TWF,TWF
3936,KTXK,medium_airport,Texarkana Regional Webb Field,33.4537010192871,-93.9909973144531,390,NA,US,US-AR,Texarkana,yes,KTXK,TXK,TXK
3937,KTYR,medium_airport,Tyler Pounds Regional Airport,32.3540992736816,-95.4023971557617,544,NA,US,US-TX,Tyler,yes,KTYR,TYR,TYR
3938,KTYS,large_airport,McGhee Tyson Airport,35.81100082,-83.9940033,981,NA,US,US-TN,Knoxville,yes,KTYS,TYS,TYS
21280,KUAO,medium_airport,Aurora State Airport,45.2471008300781,-122.769996643066,200,NA,US,US-OR,Aurora,no,KUAO,,UAO
3940,KUIN,medium_airport,Quincy Regional Baldwin Field,39.94269943,-91.19460297,768,NA,US,US-IL,Quincy,yes,KUIN,UIN,UIN
3941,KUKI,medium_airport,Ukiah Municipal Airport,39.125999450684,-123.20099639893,614,NA,US,US-CA,Ukiah,no,KUKI,UKI,UKI
21300,KUNV,medium_airport,University Park Airport,40.8493003845,-77.8487014771,1239,NA,US,US-PA,State College,yes,KUNV,SCE,UNV
3942,KUOX,medium_airport,University Oxford Airport,34.384300231934,-89.536796569824,452,NA,US,US-MS,Oxford,no,KUOX,UOX,UOX
21304,KUTS,medium_airport,Huntsville Regional Airport,30.7469005585,-95.5871963501,363,NA,US,US-TX,Huntsville,no,KUTS,HTV,UTS
3943,KVAD,medium_airport,Moody Air Force Base,30.9678001404,-83.1930007935,233,NA,US,US-GA,Valdosta,no,KVAD,VAD,VAD
3944,KVBG,large_airport,Vandenberg Air Force Base,34.7373008728,-120.583999634,369,NA,US,US-CA,Lompoc,no,KVBG,VBG,VBG
3945,KVCT,medium_airport,Victoria Regional Airport,28.8526000976562,-96.9185028076172,115,NA,US,US-TX,Victoria,yes,KVCT,VCT,VCT
21318,KVEL,medium_airport,Vernal Regional Airport,40.4408989,-109.5100021,5278,NA,US,US-UT,Vernal,no,KVEL,VEL,VEL
21321,KVGT,medium_airport,North Las Vegas Airport,36.21070098877,-115.19400024414,2205,NA,US,US-NV,Las Vegas,no,KVGT,VGT,VGT
3946,KVLD,medium_airport,Valdosta Regional Airport,30.7824993133545,-83.2767028808594,203,NA,US,US-GA,Valdosta,yes,KVLD,VLD,VLD
21333,KVNY,medium_airport,Van Nuys Airport,34.209800720215,-118.48999786377,802,NA,US,US-CA,Van Nuys,no,KVNY,VNY,VNY
3947,KVOK,medium_airport,Volk Field,43.938999176025,-90.253402709961,912,NA,US,US-WI,Camp Douglas,no,KVOK,VOK,VOK
3948,KVPS,large_airport,Destin-Ft Walton Beach Airport,30.4832,-86.525398,87,NA,US,US-FL,Valparaiso,yes,KVPS,VPS,VPS
3949,KVPZ,medium_airport,Porter County Municipal Airport,41.45399857,-87.00710297,770,NA,US,US-IN,Valparaiso,no,KVPZ,VPZ,VPZ
3950,KVRB,medium_airport,Vero Beach Regional Airport,27.6556,-80.417901,24,NA,US,US-FL,Vero Beach,no,KVRB,VRB,VRB
21339,KVTN,medium_airport,Miller Field,42.85779953,-100.5479965,2596,NA,US,US-NE,Valentine,no,KVTN,VTN,VTN
21358,KW63,medium_airport,Lake Country Regional Airport,36.5957984924,-78.5600967407,421,NA,US,US-VA,Clarksville,no,KW63,,W63
21375,KWJF,medium_airport,General WM J Fox Airfield,34.74110031,-118.2190018,2351,NA,US,US-CA,Lancaster,no,KWJF,WJF,WJF
21379,KWMC,medium_airport,Winnemucca Municipal Airport,40.8965988159,-117.805999756,4308,NA,US,US-NV,Winnemucca,no,KWMC,WMC,WMC
3951,KWRB,large_airport,Robins Air Force Base,32.6400985718,-83.5919036865,294,NA,US,US-GA,Warner Robins,no,KWRB,WRB,WRB
3952,KWRI,medium_airport,Mc Guire Air Force Base,40.0155983,-74.59169769,131,NA,US,US-NJ,Wrightstown,no,KWRI,WRI,WRI
3953,KWRL,medium_airport,Worland Municipal Airport,43.9656982421875,-107.950996398926,4227,NA,US,US-WY,Worland,yes,KWRL,WRL,WRL
3954,KWWD,medium_airport,Cape May County Airport,39.0084991455,-74.9083023071,23,NA,US,US-NJ,Wildwood,no,KWWD,WWD,WWD
21386,KWWR,medium_airport,West Woodward Airport,36.438,-99.5226667,2189,NA,US,US-OK,Woodward,no,KWWR,WWR,WWR
3955,KWYS,medium_airport,Yellowstone Airport,44.68840027,-111.1179962,6649,NA,US,US-MT,West Yellowstone,no,KWYS,WYS,WYS
3956,KXMR,medium_airport,Cape Canaveral AFS Skid Strip,28.4675998688,-80.5665969849,10,NA,US,US-FL,Cocoa Beach,no,KXMR,,XMR
21410,KXNA,medium_airport,Northwest Arkansas Regional Airport,36.281898,-94.306801,1287,NA,US,US-AR,Fayetteville/Springdale/Rogers,yes,KXNA,XNA,XNA
28148,KXTA,medium_airport,Homey (Area 51) Airport,37.2350006103516,-115.810997009277,4462,NA,US,US-NV,Groom Lake,no,KXTA,,
3957,KYIP,medium_airport,Willow Run Airport,42.23789978,-83.53040314,716,NA,US,US-MI,Detroit,no,KYIP,YIP,YIP
3958,KYKM,medium_airport,Yakima Air Terminal McAllister Field,46.56819916,-120.5439987,1099,NA,US,US-WA,Yakima,yes,KYKM,YKM,YKM
3959,KYKN,medium_airport,Chan Gurney Municipal Airport,42.916698455811,-97.385902404785,1306,NA,US,US-SD,Yankton,no,KYKN,YKN,YKN
3960,KYNG,medium_airport,Youngstown Warren Regional Airport,41.26070023,-80.67910004,1192,NA,US,US-OH,Youngstown/Warren,no,KYNG,YNG,YNG
3967,KZZV,medium_airport,Zanesville Municipal Airport,39.9444007874,-81.8920974731,900,NA,US,US-OH,Zanesville,no,KZZV,ZZV,ZZV
5336,PAAQ,medium_airport,"Warren ""Bud"" Woods Palmer Municipal Airport",61.594898,-149.08901,242,NA,US,US-AK,Palmer,no,PAAQ,PAQ,PAQ
5337,PABA,medium_airport,Barter Island LRRS Airport,70.1340026855,-143.582000732,2,NA,US,US-AK,Barter Island Lrrs,no,PABA,BTI,BTI
5338,PABE,medium_airport,Bethel Airport,60.77980042,-161.8379974,126,NA,US,US-AK,Bethel,yes,PABE,BET,BET
5339,PABI,medium_airport,Allen Army Airfield,63.9944992065,-145.722000122,1291,NA,US,US-AK,Delta Junction Ft Greely,no,PABI,BIG,BIG
5340,PABL,medium_airport,Buckland Airport,65.9815979004,-161.149002075,31,NA,US,US-AK,Buckland,no,PABL,BKC,BVK
5342,PABR,medium_airport,Wiley Post Will Rogers Memorial Airport,71.285402,-156.766008,44,NA,US,US-AK,UtqiaÄ¡vik,yes,PABR,BRW,BRW
5343,PABT,medium_airport,Bettles Airport,66.91390228,-151.529007,647,NA,US,US-AK,Bettles,no,PABT,BTT,BTT
5344,PABV,medium_airport,Birchwood Airport,61.41650009,-149.5070038,83,NA,US,US-AK,Birchwood,no,PABV,,BCV
5345,PACD,medium_airport,Cold Bay Airport,55.2061004638672,-162.725006103516,96,NA,US,US-AK,Cold Bay,no,PACD,CDB,CDB
5346,PACL,medium_airport,Clear Airport,64.301201,-149.119995,552,NA,US,US-AK,Clear,no,PACL,,Z84
5347,PACM,medium_airport,Scammon Bay Airport,61.8452987671,-165.570999146,14,NA,US,US-AK,Scammon Bay,no,PACM,SCM,SCM
5348,PACV,medium_airport,Merle K (Mudhole) Smith Airport,60.4917984,-145.4779968,54,NA,US,US-AK,Cordova,yes,PACV,CDV,CDV
5349,PACZ,medium_airport,Cape Romanzof LRRS Airport,61.78030014,-166.0390015,464,NA,US,US-AK,Cape Romanzof,no,PACZ,CZF,CZF
5350,PADE,medium_airport,Deering Airport,66.0696029663,-162.76600647,21,NA,US,US-AK,Deering,no,PADE,DRG,DEE
16092,PADK,medium_airport,Adak Airport,51.8779983520508,-176.64599609375,18,NA,US,US-AK,Adak Island,yes,PADK,ADK,ADK
5351,PADL,medium_airport,Dillingham Airport,59.04470062,-158.5050049,81,NA,US,US-AK,Dillingham,yes,PADL,DLG,DLG
5352,PADM,medium_airport,Marshall Don Hunter Sr Airport,61.8642997742,-162.026000977,103,NA,US,US-AK,Marshall,yes,PADM,MLL,MDM
5353,PADQ,medium_airport,Kodiak Airport,57.75,-152.4940033,78,NA,US,US-AK,Kodiak,yes,PADQ,ADQ,ADQ
5354,PADU,medium_airport,Unalaska Airport,53.900100708,-166.544006348,22,NA,US,US-AK,Unalaska,yes,PADU,DUT,DUT
5355,PAED,medium_airport,Elmendorf Air Force Base,61.2509994506836,-149.807006835938,212,NA,US,US-AK,Anchorage,no,PAED,EDF,EDF
5356,PAEH,medium_airport,Cape Newenham LRRS Airport,58.6464004517,-162.06300354,541,NA,US,US-AK,Cape Newenham,no,PAEH,EHM,EHM
5357,PAEI,medium_airport,Eielson Air Force Base,64.66570282,-147.102005,547,NA,US,US-AK,Fairbanks,no,PAEI,EIL,EIL
5358,PAEM,medium_airport,Emmonak Airport,62.78609848,-164.4909973,13,NA,US,US-AK,Emmonak,yes,PAEM,EMK,ENM
5359,PAEN,medium_airport,Kenai Municipal Airport,60.5731010437012,-151.244995117188,99,NA,US,US-AK,Kenai,no,PAEN,ENA,ENA
5360,PAFA,large_airport,Fairbanks International Airport,64.81510162,-147.8560028,439,NA,US,US-AK,Fairbanks,yes,PAFA,FAI,FAI
5361,PAFB,medium_airport,Ladd AAF Airfield,64.83750153,-147.6139984,454,NA,US,US-AK,Fairbanks/Ft Wainwright,no,PAFB,FBK,FBK
5362,PAFE,medium_airport,Kake Airport,56.9613990784,-133.910003662,172,NA,US,US-AK,Kake,no,PAFE,,AFE
5363,PAFM,medium_airport,Ambler Airport,67.1063,-157.856989,334,NA,US,US-AK,Ambler,no,PAFM,ABL,AFM
5365,PAGA,medium_airport,Edward G. Pitka Sr Airport,64.73619843,-156.9369965,153,NA,US,US-AK,Galena,no,PAGA,GAL,GAL
5367,PAGK,medium_airport,Gulkana Airport,62.1548996,-145.4570007,1586,NA,US,US-AK,Gulkana,no,PAGK,GKN,GKN
5368,PAGM,medium_airport,Gambell Airport,63.7667999267578,-171.733001708984,27,NA,US,US-AK,Gambell,no,PAGM,GAM,GAM
5369,PAGS,medium_airport,Gustavus Airport,58.4253006,-135.7070007,35,NA,US,US-AK,Gustavus,yes,PAGS,GST,GST
17619,PAHC,medium_airport,Holy Cross Airport,62.1883010864258,-159.774993896484,70,NA,US,US-AK,Holy Cross,yes,PAHC,HCR,HCA
5370,PAHL,medium_airport,Huslia Airport,65.69789886,-156.3509979,220,NA,US,US-AK,Huslia,no,PAHL,HSL,HLA
5372,PAHN,medium_airport,Haines Airport,59.2438011169434,-135.524002075195,15,NA,US,US-AK,Haines,yes,PAHN,HNS,HNS
5373,PAHO,medium_airport,Homer Airport,59.6455993652344,-151.477005004883,84,NA,US,US-AK,Homer,no,PAHO,HOM,HOM
5374,PAHP,medium_airport,Hooper Bay Airport,61.52389908,-166.1470032,13,NA,US,US-AK,Hooper Bay,no,PAHP,HPB,HPB
5375,PAII,medium_airport,Egegik Airport,58.1855010986,-157.375,92,NA,US,US-AK,Egegik,yes,PAII,EGX,EII
5376,PAIK,medium_airport,Bob Baker Memorial Airport,66.9759979248,-160.43699646,166,NA,US,US-AK,Kiana,no,PAIK,IAN,IAN
5377,PAIL,medium_airport,Iliamna Airport,59.75439835,-154.9109955,192,NA,US,US-AK,Iliamna,no,PAIL,ILI,ILI
5378,PAIM,medium_airport,Indian Mountain LRRS Airport,65.99279785,-153.7039948,1273,NA,US,US-AK,Utopia Creek,no,PAIM,UTO,UTO
5379,PAJN,medium_airport,Juneau International Airport,58.3549995422363,-134.57600402832,21,NA,US,US-AK,Juneau,yes,PAJN,JNU,JNU
5380,PAKN,medium_airport,King Salmon Airport,58.67679977,-156.6490021,73,NA,US,US-AK,King Salmon,yes,PAKN,AKN,AKN
5381,PAKP,medium_airport,Anaktuvuk Pass Airport,68.13359833,-151.7429962,2102,NA,US,US-AK,Anaktuvuk Pass,no,PAKP,AKP,AKP
5382,PAKT,medium_airport,Ketchikan International Airport,55.35559845,-131.7140045,89,NA,US,US-AK,Ketchikan,yes,PAKT,KTN,KTN
5383,PAKW,medium_airport,Klawock Airport,55.5792007446,-133.076004028,80,NA,US,US-AK,Klawock,no,PAKW,KLW,AKW
5385,PALU,medium_airport,Cape Lisburne LRRS Airport,68.87509918,-166.1100006,16,NA,US,US-AK,Cape Lisburne,no,PALU,LUR,LUR
21844,PAMC,medium_airport,McGrath Airport,62.95289993,-155.6060028,341,NA,US,US-AK,McGrath,yes,PAMC,MCG,MCG
5386,PAMR,medium_airport,Merrill Field,61.2135009765625,-149.843994140625,137,NA,US,US-AK,Anchorage,no,PAMR,MRI,MRI
5387,PAMY,medium_airport,Mekoryuk Airport,60.3713989257813,-166.27099609375,48,NA,US,US-AK,Mekoryuk,no,PAMY,MYU,MYU
5388,PANC,large_airport,Ted Stevens Anchorage International Airport,61.1744003295898,-149.996002197266,152,NA,US,US-AK,Anchorage,yes,PANC,ANC,ANC
16291,PANI,medium_airport,Aniak Airport,61.581600189209,-159.542999267578,88,NA,US,US-AK,Aniak,yes,PANI,ANI,ANI
5390,PANN,medium_airport,Nenana Municipal Airport,64.5473022460938,-149.074005126953,362,NA,US,US-AK,Nenana,no,PANN,ENN,ENN
5391,PANT,medium_airport,Annette Island Airport,55.0424003601074,-131.572006225586,119,NA,US,US-AK,Annette,yes,PANT,ANN,ANN
5392,PANV,medium_airport,Anvik Airport,62.646702,-160.190994,291,NA,US,US-AK,Anvik,yes,PANV,ANV,ANV
5393,PAOM,medium_airport,Nome Airport,64.5121994018555,-165.445007324219,37,NA,US,US-AK,Nome,yes,PAOM,OME,OME
5394,PAOR,medium_airport,Northway Airport,62.9612999,-141.9290009,1715,NA,US,US-AK,Northway,no,PAOR,ORT,ORT
5395,PAOT,medium_airport,Ralph Wien Memorial Airport,66.88469696,-162.598999,14,NA,US,US-AK,Kotzebue,yes,PAOT,OTZ,OTZ
5396,PAPB,medium_airport,St George Airport,56.5783004761,-169.662002563,125,NA,US,US-AK,St George,no,PAPB,STG,PBV
5397,PAPC,medium_airport,Port Clarence Coast Guard Station,65.2537002563,-166.85899353,10,NA,US,US-AK,Port Clarence,no,PAPC,KPC,KPC
5398,PAPG,medium_airport,Petersburg James A Johnson Airport,56.80170059,-132.9450073,111,NA,US,US-AK,Petersburg,yes,PAPG,PSG,PSG
5399,PAPH,medium_airport,Port Heiden Airport,56.959098815918,-158.632995605469,95,NA,US,US-AK,Port Heiden,no,PAPH,PTH,PTH
5400,PAPM,medium_airport,Platinum Airport,59.0113983154297,-161.820007324219,15,NA,US,US-AK,Platinum,no,PAPM,PTU,PTU
5401,PAQT,medium_airport,Nuiqsut Airport,70.2099990845,-151.005996704,38,NA,US,US-AK,Nuiqsut,no,PAQT,NUI,AQT
5402,PARC,medium_airport,Arctic Village Airport,68.1147,-145.578995,2092,NA,US,US-AK,Arctic Village,yes,PARC,ARC,ARC
5403,PARY,medium_airport,Ruby Airport,64.72720337,-155.4700012,658,NA,US,US-AK,Ruby,no,PARY,RBY,RBY
5404,PASA,medium_airport,Savoonga Airport,63.6864013671875,-170.49299621582,53,NA,US,US-AK,Savoonga,no,PASA,SVA,SVA
5405,PASC,medium_airport,Deadhorse Airport,70.19470215,-148.4649963,65,NA,US,US-AK,Deadhorse,yes,PASC,SCC,SCC
5406,PASD,medium_airport,Sand Point Airport,55.314998626709,-160.522994995117,21,NA,US,US-AK,Sand Point,no,PASD,SDP,SDP
5407,PASH,medium_airport,Shishmaref Airport,66.249604,-166.089112,12,NA,US,US-AK,Shishmaref,no,PASH,SHH,SHH
5408,PASI,medium_airport,Sitka Rocky Gutierrez Airport,57.0471000671387,-135.361999511719,21,NA,US,US-AK,Sitka,yes,PASI,SIT,SIT
5384,PASK,medium_airport,Selawik Airport,66.60009766,-159.9859924,17,NA,US,US-AK,Selawik,no,PASK,WLK,WLK
5409,PASM,medium_airport,St Mary's Airport,62.0605011,-163.302002,312,NA,US,US-AK,St Mary's,no,PASM,KSM,KSM
5410,PASN,medium_airport,St Paul Island Airport,57.1673011779785,-170.220001220703,63,NA,US,US-AK,St Paul Island,no,PASN,SNP,SNP
5411,PASV,medium_airport,Sparrevohn LRRS Airport,61.09740067,-155.5740051,1585,NA,US,US-AK,Sparrevohn,no,PASV,SVW,SVW
5412,PASX,medium_airport,Soldotna Airport,60.475700378418,-151.033996582031,113,NA,US,US-AK,Soldotna,no,PASX,SXQ,SXQ
5413,PASY,medium_airport,Eareckson Air Station,52.71229935,174.1139984,95,NA,US,US-AK,Shemya,no,PASY,SYA,SYA
5414,PATG,medium_airport,Togiak Airport,59.0527992248535,-160.397003173828,21,NA,US,US-AK,Togiak Village,no,PATG,TOG,TOG
24910,PATK,medium_airport,Talkeetna Airport,62.320499420166,-150.09399414062,358,NA,US,US-AK,Talkeetna,no,PATK,TKA,TKA
5415,PATL,medium_airport,Tatalina LRRS Airport,62.8944015503,-155.977005005,964,NA,US,US-AK,Takotna,no,PATL,TLJ,TLJ
5416,PATQ,medium_airport,Atqasuk Edward Burnell Sr Memorial Airport,70.4673004150391,-157.436004638672,96,NA,US,US-AK,Atqasuk,no,PATQ,ATK,ATK
5418,PAVD,medium_airport,Valdez Pioneer Field,61.13389969,-146.2480011,121,NA,US,US-AK,Valdez,no,PAVD,VDZ,VDZ
5419,PAVL,medium_airport,Kivalina Airport,67.736198425293,-164.563003540039,13,NA,US,US-AK,Kivalina,no,PAVL,KVL,KVL
5420,PAWD,medium_airport,Seward Airport,60.1268997192383,-149.419006347656,22,NA,US,US-AK,Seward,no,PAWD,SWD,SWD
5421,PAWG,medium_airport,Wrangell Airport,56.48429871,-132.3699951,49,NA,US,US-AK,Wrangell,yes,PAWG,WRG,WRG
5422,PAWI,medium_airport,Wainwright Airport,70.6380004883,-159.994995117,41,NA,US,US-AK,Wainwright,no,PAWI,AIN,AWI
5423,PAWN,medium_airport,Noatak Airport,67.5661010742188,-162.975006103516,88,NA,US,US-AK,Noatak,no,PAWN,WTK,WTK
5424,PAWS,medium_airport,Wasilla Airport,61.5717010498,-149.539993286,354,NA,US,US-AK,Wasilla,no,PAWS,WWA,IYS
26343,PAYA,medium_airport,Yakutat Airport,59.5032997131,-139.660003662,33,NA,US,US-AK,Yakutat,yes,PAYA,YAK,YAK
5429,PFYU,medium_airport,Fort Yukon Airport,66.5715026855469,-145.25,433,NA,US,US-AK,Fort Yukon,no,PFYU,FYU,FYU
5441,PHBK,medium_airport,Barking Sands Airport,22.0228004456,-159.785003662,23,NA,US,US-HI,Kekaha,no,PHBK,BKH,BKH
5442,PHDH,medium_airport,Dillingham Airfield,21.5795001984,-158.197006226,14,NA,US,US-HI,Mokuleia,no,PHDH,HDH,HDH
5443,PHHI,medium_airport,Wheeler Army Airfield,21.48349953,-158.0399933,837,NA,US,US-HI,Wahiawa,no,PHHI,HHI,HHI
5444,PHHN,medium_airport,Hana Airport,20.7956008911133,-156.014007568359,78,NA,US,US-HI,Hana,yes,PHHN,HNM,HNM
5446,PHJH,medium_airport,Kapalua Airport,20.9629001617432,-156.673004150391,256,NA,US,US-HI,Lahaina,yes,PHJH,JHM,JHM
5447,PHJR,medium_airport,Kalaeloa Airport,21.3074,-158.070009,30,NA,US,US-HI,Kapolei,no,PHJR,JRF,JRF
5448,PHKO,medium_airport,Ellison Onizuka Kona International At Keahole Airport,19.738783,-156.045603,47,NA,US,US-HI,Kailua/Kona,yes,PHKO,KOA,KOA
5449,PHLI,medium_airport,Lihue Airport,21.9759998321533,-159.339004516602,153,NA,US,US-HI,Lihue,yes,PHLI,LIH,LIH
5450,PHMK,medium_airport,Molokai Airport,21.1529006958008,-157.095993041992,454,NA,US,US-HI,Kaunakakai,yes,PHMK,MKK,MKK
5451,PHMU,medium_airport,Waimea Kohala Airport,20.0013008117676,-155.667999267578,2671,NA,US,US-HI,Kamuela,yes,PHMU,MUE,MUE
5452,PHNG,medium_airport,Kaneohe Bay MCAS (Marion E. Carl Field) Airport,21.4505004883,-157.768005371,24,NA,US,US-HI,Kaneohe,no,PHNG,NGF,NGF
5453,PHNL,large_airport,Daniel K Inouye International Airport,21.32062,-157.924228,13,NA,US,US-HI,Honolulu,yes,PHNL,HNL,HNL
5454,PHNY,medium_airport,Lanai Airport,20.7856006622314,-156.95100402832,1308,NA,US,US-HI,Lanai City,yes,PHNY,LNY,LNY
5455,PHOG,medium_airport,Kahului Airport,20.8986,-156.429993,54,NA,US,US-HI,Kahului,yes,PHOG,OGG,OGG
5456,PHSF,medium_airport,Bradshaw Army Airfield,19.760099411,-155.554000854,6190,NA,US,US-HI,Camp Pohakuloa,no,PHSF,BSF,BSF
5457,PHTO,medium_airport,Hilo International Airport,19.721399307251,-155.048004150391,38,NA,US,US-HI,Hilo,yes,PHTO,ITO,ITO
5458,PHUP,medium_airport,Upolu Airport,20.2653007507324,-155.860000610352,96,NA,US,US-HI,Hawi,no,PHUP,UPP,UPP
5495,PPIZ,medium_airport,Point Lay LRRS Airport,69.73290253,-163.0050049,22,NA,US,US-AK,Point Lay,no,PPIZ,PIZ,PIZ
324440,US-0571,medium_airport,Williston Basin International Airport (U.C.),48.258387,-103.748797,2344,NA,US,US-ND,Williston,no,,,XWA
